Name,Address,City,State,Zip,Hours,Number,lat,lng
"TCC, Verizon Authorized Dealer",1230 N. Baldwin Avenue,Marion,IN,46952,"M-F 9-8, SAT 9-8, SUN 10-5",765-651-2000,40.57405472,-85.67476654
"TCC, Verizon Authorized Dealer","6404 W Jefferson Blvd., Suite A",Fort Wayne,IN,46804,"M-F 9-8, SAT 9-8, SUN 10-5",260-436-2477,41.0564003,-85.22509766
"TCC, Verizon Authorized Dealer",1126 W. McGalliard Road,Muncie,IN,47303,"M-F 9-8, SAT 9-8, SUN 10-5",765-282-5212,40.21900177,-85.39849854
"TCC, Verizon Authorized Dealer",2036 S. Scatterfield Road,Anderson,IN,46016,"M-F 9-8, SAT 9-7, SUN 10-5",765-644-4444,40.09640122,-85.65209961
"TCC, Verizon Authorized Dealer",5000 W. Lloyd Expressway,Evansville,IN,47712,"M-F 9-8, SAT 9-7, SUN 10-5",812-422-0577,37.97529984,-87.63469696
"TCC, Verizon Authorized Dealer",1352 South Rangeline Road,Carmel,IN,46032,"M-F 9-8, SAT 9-7, SUN 10-5",317-843-2900,39.95920181,-86.12680054
"TCC, Verizon Authorized Dealer",1723 South Bend Avenue,South Bend,IN,46637,"M-F 9-8, SAT 9-7, SUN 10-5",574-243-5730,41.69580078,-86.22239685
"TCC, Verizon Authorized Dealer","1279 N Emerson Avenue, Suite H",Greenwood,IN,46143,"M-F 9-8, SAT 9-7, SUN 10-5",317-888-2867,39.6393013,-86.08409882
"TCC, Verizon Authorized Dealer","2400 Marketplace Blvd., Suite A",Shelbyville,IN,46176,"M-F 9-8, SAT 9-7, SUN 10-5",317-392-4100,39.52140045,-85.7457962
"TCC, Verizon Authorized Dealer","1040 St. Road 229, Suite A",Batesville,IN,47006,"M-F 9-8, SAT 9-7, SUN 10-5",812-934-5500,39.31209946,-85.21589661
"TCC, Verizon Authorized Dealer",2075 Jonathon Moore Pike,Columbus,IN,47201,"M-F 9-8, SAT 9-7, SUN 10-5",812-372-3348,39.20009995,-85.9469986
"TCC, Verizon Authorized Dealer",222 N. 13th Street,Decatur,IN,46733,"M-F 9-8, SAT 10-8, SUN 10-5",260-728-4999,40.83004761,-84.93703461
"TCC, Verizon Authorized Dealer",1870 North State Street,North Vernon,IN,47265,"M-F 9-8, SAT 9-7, SUN 10-5",812-346-4593,39.01409912,-85.63899994
"TCC, Verizon Authorized Dealer",326 State Road 930 West,New Haven,IN,46774,"M-F 9-8, SAT 9-8, SUN 10-5",260-749-7400,41.06880188,-85.03199768
"TCC, Verizon Authorized Dealer","11722 Allisonville Road, Suite 101",Fishers,IN,46038,"M-F 9-8, SAT 9-7, SUN 10-5",317-578-2619,39.95859909,-86.03949738
"TCC, Verizon Authorized Dealer","1047 Smaltz Way, Unit 7",Auburn,IN,46706,"M-F 9-8, SAT 9-8, SUN 10-5",260-927-0489,41.36090088,-85.08650208
"TCC, Verizon Authorized Dealer","1717 S. State Road 57, Suite M",Washington,IN,47501,"M-F 9-8, SAT 9-7, SUN 10-5",812-257-0181,38.63430023,-87.17939758
"TCC, Verizon Authorized Dealer",2199 North Morton Street,Franklin,IN,46131,"M-F 9-8, SAT 9-7, SUN 10-5",317-738-5411,39.4695015,-86.05809784
"TCC, Verizon Authorized Dealer",1327 East Tipton Street,Seymour,IN,47274,"M-F 9-8, SAT 9-7, SUN 10-5",812-523-8711,38.95840073,-85.86889648
"TCC, Verizon Authorized Dealer",111 South Memorial Drive,New Castle,IN,47362,"M-F 9-8, SAT 9-7, SUN 10-5",765-529-7607,39.92985153,-85.38225555
"TCC, Verizon Authorized Dealer","922 N. Meridian Street, Suite 1",Portland,IN,47371,"M-F 9-8, SAT 9-8, SUN 10-5",260-726-3468,40.4416008,-84.97810364
"TCC, Verizon Authorized Dealer",4903 South Emerson Ave,Indianapolis,IN,46203,"M-F 9-8, SAT 9-7, SUN 10-5",317-786-8702,39.69599915,-86.08229828
"TCC, Verizon Authorized Dealer",4002 Western Ave.,Connersville,IN,47331,"M-F 9-8, SAT 9-7, SUN 10-5",765-827-9895,39.68209839,-85.1384964
"TCC, Verizon Authorized Dealer","10302 Prosperity Circle, Suite 105",Camby,IN,46113,"M-F 9-8, SAT 9-7, SUN 10-5",317-821-8438,39.63690186,-86.33719635
"TCC, Verizon Authorized Dealer","120 W. Smith Valley Road, Suite E",Greenwood,IN,46143,"M-F 9-8, SAT 9-7, SUN 10-5",317-534-0089,39.60639954,-86.10690308
"TCC, Verizon Authorized Dealer","2519 Hwy 227, Unit B",Carrollton,KY,41008,"M-F 9-8, SAT 9-7, SUN 10-5",502-732-5343,38.65159988,-85.12660217
"TCC, Verizon Authorized Dealer","558 W. 300 N., Unit E3",Warsaw,IN,46582,"M-F 9-8, SAT 9-7, SUN 10-5",574-268-0087,41.27840042,-85.85350037
"TCC, Verizon Authorized Dealer",2339 South SR 46,Terre Haute,IN,47803,"M-F 9-8, SAT 9-7, SUN 10-5",812-877-3500,39.4408989,-87.33300018
"TCC, Verizon Authorized Dealer",10172 Maysville Road,Fort Wayne,IN,46835,"M-F 9-8, SAT 10-8, SUN 10-5",260-485-6138,41.12879944,-85.01239777
"TCC, Verizon Authorized Dealer",81 North SR 135,Greenwood,IN,46142,"M-F 9-8, SAT 9-7, SUN 10-5",317-888-6232,39.61629868,-86.15799713
"TCC, Verizon Authorized Dealer","3248 South Western, Suite E",Marion,IN,46952,"M-F 9-8, SAT 9-8, SUN 10-5",765-668-3922,40.53039932,-85.67420197
"TCC, Verizon Authorized Dealer",348 E State Street,West Lafayette,IN,47906,"M-F 9-8, SAT 9-7, SUN 10-5",765-464-2432,40.42050171,-86.90090179
"TCC, Verizon Authorized Dealer","175 E. Alex Bell Road, Suite 252",Centerville,OH,45459,"M-F 9-8, SAT 9-7, SUN 10-5",937-438-3171,39.64590073,-84.15059662
"TCC, Verizon Authorized Dealer",1204 East Ash Street,Piqua,OH,45356,"M-F 9-8, SAT 9-8, SUN 10-5",937-778-0211,40.1507988,-84.21450043
"TCC, Verizon Authorized Dealer",1833 W. Main Street,Troy,OH,45373,"M-F 9-8, SAT 9-8, SUN 10-5",937-332-7800,40.05680084,-84.23889923
"TCC, Verizon Authorized Dealer",6212 Wilmington Pike,Dayton,OH,45459,"M-F 9-8, SAT 9-8, SUN 12-5",937-848-4172,39.6493988,-84.11009979
"TCC, Verizon Authorized Dealer",1814 N. Main Street,Rushville,IN,46173,"M-F 9-8, SAT 9-7, SUN 10-5",765-932-4880,39.62929916,-85.44490051
"TCC, Verizon Authorized Dealer",2603 Hart Street,Vincennes,IN,47591,"M-F 9-8, SAT 9-7, SUN 10-5",812-886-9590,38.65620041,-87.5042038
"TCC, Verizon Authorized Dealer","1663 N. State Street, Space 202",Greenfield,IN,46140,"M-F 9-8, SAT 9-7, SUN 10-5",317-462-2909,39.80830002,-85.7696991
"TCC, Verizon Authorized Dealer",430 E. Freeland Road,Greensburg,IN,47240,"M-F 9-8, SAT 9-7, SUN 10-5",812-662-8885,39.35860062,-85.47910309
"TCC, Verizon Authorized Dealer",17231 Mercantile Boulevard,Noblesville,IN,46060,"M-F 9-8, SAT 9-7, SUN 10-5",317-773-2202,40.03860092,-85.99349976
"TCC, Verizon Authorized Dealer",126 E. Main Street,Gas City,IN,46933,"M-F 9-8, SAT 9-8, SUN 10-5",765-677-0668,40.48759842,-85.61389923
"TCC, Verizon Authorized Dealer",5230 S. Franklin Street,Michigan City,IN,46360,"M-F 9-8, SAT 9-7, SUN 10-5",219-874-7999,41.67160034,-86.89389801
"TCC, Verizon Authorized Dealer",9939 Wicker Avenue,St. John,IN,46373,"M-F 9-8, SAT 9-7, SUN 10-5",219-365-6760,41.4367981,-87.46990204
"TCC, Verizon Authorized Dealer",822 Ridge Road,Munster,IN,46321,"M-F 9-8, SAT 9-7, SUN 10-5",219-836-2895,41.56119919,-87.50869751
"TCC, Verizon Authorized Dealer","5956 Stellhorn Road, Suite C",Fort Wayne,IN,46815,"M-F 9-8, SAT 10-8, SUN 10-5",260-486-9767,41.11978912,-85.06604004
"TCC, Verizon Authorized Dealer","10930 Pendleton Pike, Suite 106",Indianapolis,IN,46236,"M-F 9-8, SAT 9-7, SUN 10-5",317-826-6597,39.86259842,-85.97380066
"TCC, Verizon Authorized Dealer",3639 East Main Street,Richmond,IN,47374,"M-F 9-8, SAT 9-7, SUN 10-5",765-966-0800,39.82910156,-84.85430145
"TCC, Verizon Authorized Dealer",2133 North Main Street,Bluffton,IN,46714,"M-F 9-8, SAT 10-8, SUN 10-5",260-824-3858,40.7641983,-85.16570282
"TCC, Verizon Authorized Dealer",121 West North Street,Kendallville,IN,46755,"M-F 9-8, SAT 10-7, SUN 10-5",260-343-9077,41.45199966,-85.2684021
"TCC, Verizon Authorized Dealer",1426 N. Wayne St.,Angola,IN,46703,"M-F 9-8, SAT 9-8, SUN 10-5",260-624-2400,41.65156937,-84.99899292
"TCC, Verizon Authorized Dealer",305 County Road 6 East,Elkhart,IN,46514,"M-F 9-8, SAT 9-7, SUN 10-5",574-266-9689,41.72430039,-85.97450256
"TCC, Verizon Authorized Dealer",301 South Main Street,Goshen,IN,46526,"M-F 9-8, SAT 9-7, SUN 10-5",574-537-1820,41.58369827,-85.83450317
"TCC, Verizon Authorized Dealer",3780 N Newton Street,Jasper,IN,47546,"M-F 9-8, SAT 9-7, SUN 10-5",812-481-2782,38.4253006,-86.93520355
"TCC, Verizon Authorized Dealer",9414 Civic Center Blvd.,West Chester,OH,45069,"M-F 9-8, SAT 9-7, SUN 10-5",513-755-6504,39.3205986,-84.42140198
"TCC, Verizon Authorized Dealer","1520 Wagner Ave., Suite 101",Greenville,OH,45331,"M-F 9-8, SAT 9-8, SUN 10-5",937-547-1818,40.12739945,-84.62030029
"TCC, Verizon Authorized Dealer",155 Boyd Blvd.,LaPorte,IN,46350,"M-F 9-8, SAT 9-7, SUN 10-5",219-324-0931,41.62189865,-86.69480133
"TCC, Verizon Authorized Dealer",1605 North Michigan Street,Plymouth,IN,46563,"M-F 9-8, SAT 9-7, SUN 10-5",574-936-9000,41.35400009,-86.31099701
"TCC, Verizon Authorized Dealer","2709 West Broadway, Suite B",Princeton,IN,47670,"M-F 9-8, SAT 9-7, SUN 10-5",812-385-8166,38.35540009,-87.59329987
"TCC, Verizon Authorized Dealer",590 W. Northfield Dr.,Brownsburg,IN,46112,"M-F 9-8, SAT 9-7, SUN 10-5",317-858-7655,39.85990143,-86.4056015
"TCC, Verizon Authorized Dealer","1080 Eagleton Center, Unit E1",London,OH,43140,"M-F 9-8, SAT 9-8, SUN 10-5",740-852-9059,39.88639832,-83.44819641
"TCC, Verizon Authorized Dealer",1371 Leesburg Avenue,Washington Courthouse,OH,43160,"M-F 9-8, SAT 9-8, SUN 10-5",740-335-0217,39.50960159,-83.46440125
"TCC, Verizon Authorized Dealer",679 Scioto Street,Urbana,OH,43078,"M-F 9-8, SAT 9-8, SUN 10-5",937-484-4051,40.10699844,-83.73789978
"TCC, Verizon Authorized Dealer",2244 S. Main Street,Bellefontaine,OH,43311,"M-F 9-8, SAT 9-8, SUN 10-5",937-292-7316,40.33000183,-83.76139832
"TCC, Verizon Authorized Dealer",1107 North Barron Street,Eaton,OH,45320,"M-F 9-8, SAT 9-8, SUN 10-5",937-456-1717,39.75619888,-84.63700104
"TCC, Verizon Authorized Dealer","1248 Columbus Avenue, Suite 6",Lebanon,OH,45036,"M-F 9-8, SAT 9-8, SUN 10-5",513-228-0340,39.45159912,-84.18160248
"TCC, Verizon Authorized Dealer",5640 College Corner Pike,Oxford,OH,45056,"M-F 9-8, SAT 9-7, SUN 10-5",513-523-2694,39.52539825,-84.76629639
"TCC, Verizon Authorized Dealer",1824 Lincoln Highway,New Lenox,IL,60451,"M-F 9-8, SAT 9-7, SUN 10-5",815-462-5661,41.51250076,-87.93890381
"TCC, Verizon Authorized Dealer",31 West Bankview Drive,Frankfort,IL,60423,"M-F 9-8, SAT 9-7, SUN 10-5",815-464-0300,41.51050186,-87.85089874
"TCC, Verizon Authorized Dealer",14124 South Bell Road,Homer Glen,IL,60491,"M-F 9-8, SAT 9-7, SUN 10-5",708-301-2981,41.63140106,-87.93119812
"TCC, Verizon Authorized Dealer","848 N. Superior Dr., Bldg E Unit 100 ",Crown Point,IN,46307,"M-F 9-8, SAT 9-7, SUN 10-5",219-663-0184,41.42520142,-87.23059845
"TCC, Verizon Authorized Dealer",2082 N. State Route 50,Bourbonnais,IL,60914,"M-F 9-8, SAT 9-7, SUN 10-5",815-937-9633,41.19049835,-87.84940338
"TCC, Verizon Authorized Dealer",2516 Greenbay Road,Evanston,IL,60201,"M-F 9-8, SAT 9-7, SUN 10-5",847-475-4444,42.06309891,-87.6984024
"TCC, Verizon Authorized Dealer","254 E. Rollins Rd., Suite G5",Round Lake Beach,IL,60073,"M-F 9-8, SAT 9-7, SUN 10-5",847-740-1049,42.37939835,-88.07620239
"TCC, Verizon Authorized Dealer",122 W Veterans Pkwy,Yorkville,IL,60560,"M-F 9-8, SAT 9-7, SUN 10-5",630-882-8648,41.6576004,-88.4437027
"TCC, Verizon Authorized Dealer","16527 W. 159th St., Suite 103",Lockport,IL,60441,"M-F 9-8, SAT 9-7, SUN 10-5",815-838-2900,41.59790039,-88.02010345
"TCC, Verizon Authorized Dealer","27243 Saxony Drive, Suite D",Channahon,IL,60410,"M-F 9-8, SAT 9-7, SUN 10-5",815-467-3832,41.41949844,-88.26920319
"TCC, Verizon Authorized Dealer",219 Clifty Drive,Madison,IN,47250,"M-F 9-8, SAT 9-7, SUN 10-5",812-265-1661,38.77539825,-85.3911972
"TCC, Verizon Authorized Dealer",2415 N. Lebanon Street,Lebanon,IN,46052,"M-F 9-8, SAT 9-7, SUN 10-5",765-483-0916,40.06880188,-86.47329712
"TCC, Verizon Authorized Dealer","2900 Walmart Drive, Box 2",Huntington,IN,46750,"M-F 9-8, SAT 10-8, SUN 10-5",260-359-0739,40.8830986,-85.49749756
"TCC, Verizon Authorized Dealer",200 Flagstone Drive,Martinsville,IN,46151,"M-F 9-8, SAT 9-7, SUN 10-5",765-349-0036,39.42779923,-86.42829895
"TCC, Verizon Authorized Dealer",933 Progress Road,Winchester,IN,47394,"M-F 9-8, SAT 9-8, SUN 10-5",765-584-8100,40.17200089,-84.98139954
"TCC, Verizon Authorized Dealer","11635 East Fulton Street, Suite 100",Lowell,MI,49331,"M-F 9-8, SAT 9-7, SUN 10-5",616-897-6849,42.93090057,-85.37960052
"TCC, Verizon Authorized Dealer",1970 E. Apple Avenue,Muskegon,MI,49442,"M-F 9-8, SAT 9-8, SUN 10-5",231-767-1864,43.23469925,-86.19499969
"TCC, Verizon Authorized Dealer","3192 Commerce Lane, Suite A-1",Ionia,MI,48846,"M-F 9-8, SAT 9-8, SUN 10-5",616-523-1190,42.98730087,-85.07109833
"TCC, Verizon Authorized Dealer",406 N. Beacon Boulevard S. C-3,Grand Haven,MI,49417,"M-F 9-8, SAT 9-7, SUN 10-5",616-844-4096,43.06489945,-86.22029877
"TCC, Verizon Authorized Dealer","7589 Cottonwood Drive, Suite A",Jenison,MI,49428,"M-F 9-8, SAT 9-7, SUN 10-5",616-667-4068,42.9068985,-85.79199982
"TCC, Verizon Authorized Dealer",669 E. Saginaw Highway,Grand Ledge,MI,48837,"M-F 9-8, SAT 9-7, SUN 10-5",517-627-1419,42.74079895,-84.74199677
"TCC, Verizon Authorized Dealer","355 Wilson Avenue, Suite 400",Grand Rapids,MI,49534,"M-F 9-8, SAT 9-7, SUN 10-5",616-735-3162,42.97159958,-85.77670288
"TCC, Verizon Authorized Dealer","5212 Northland Drive, Unit A",Grand Rapids,MI,49525,"M-F 9-8, SAT 9-7, SUN 10-5",616-361-0334,43.05599976,-85.57980347
"TCC, Verizon Authorized Dealer",3552 Meridian Crossing Dr.,Okemos,MI,48864,"M-F 9-8, SAT 9-8, SUN 10-5",517-349-3199,42.72230148,-84.42749786
"TCC, Verizon Authorized Dealer",2015 Niles Road,St. Joseph,MI,49085,"M-F 9-8, SAT 9-7, SUN 10-5",269-983-2942,42.08169937,-86.48500061
"TCC, Verizon Authorized Dealer",2840 South 108th Street,West Allis,WI,53227,"M-F 9-8, SAT 9-7, SUN 10-5",414-543-4972,42.99240112,-88.04689789
"TCC, Verizon Authorized Dealer",1448 S Teut Road,Burlington,WI,53105,"M-F 9-8, SAT 9-7, SUN 10-5",262-763-3126,42.70090103,-88.25839996
"TCC, Verizon Authorized Dealer",143 N. Lincoln Dr.,Troy,MO,63379,"M-F 9-8, SAT 9-7, SUN 10-5",636-528-5121,38.98469925,-90.96980286
"TCC, Verizon Authorized Dealer",2202 1/2 N. Baltimore Street,Kirksville,MO,63501,"M-F 9-8, SAT 9-7, SUN 10-5",660-665-4040,40.21490097,-92.58239746
"TCC, Verizon Authorized Dealer",1800 West Broadway Blvd.,Sedalia,MO,65301,"M-F 9-8, SAT 9-7, SUN 10-5",660-826-6889,38.70510101,-93.25039673
"TCC, Verizon Authorized Dealer",1313 North Walnut Street,Cameron,MO,64429,"M-F 9-8, SAT 9-7, SUN 10-5",816-632-2533,39.75080109,-94.23480225
"TCC, Verizon Authorized Dealer",230 E. 9th Street,Mt. Carmel,IL,62863,"M-F 9-8, SAT 9-7, SUN 10-5",618-262-5400,38.41650009,-87.76249695
"TCC, Verizon Authorized Dealer","4201 Broadway Street, Suite B",Mt. Vernon,IL,62864,"M-F 9-8, SAT 9-7, SUN 10-5",618-246-0011,38.31359863,-88.94259644
"TCC, Verizon Authorized Dealer",109 N. Central,West City,IL,62812,"M-F 9-8, SAT 9-7, SUN 10-5",618-435-4100,37.99711609,-88.93822479
"TCC, Verizon Authorized Dealer",1200 S. Park Avenue,Herrin,IL,62948,"M-F 9-8, SAT 9-7, SUN 10-5",618-942-6700,37.79230118,-89.02780151
"TCC, Verizon Authorized Dealer",34 Southtowne Shopping Ctr,Du Quoin,IL,62832,"M-F 9-8, SAT 9-7, SUN 10-5",618-542-3700,37.99660111,-89.2358017
"TCC, Verizon Authorized Dealer",528 W. McCord Street,Centralia,IL,62801,"M-F 9-8, SAT 9-7, SUN 10-5",618-532-6000,38.53179932,-89.14199829
"TCC, Verizon Authorized Dealer",565 12th Street,Carlyle,IL,62231,"M-F 9-8, SAT 9-7, SUN 10-5",618-594-4000,38.61090088,-89.37280273
"TCC, Verizon Authorized Dealer",1445 B W. Whittaker,Salem,IL,62881,"M-F 9-8, SAT 9-7, SUN 10-5",618-548-8000,38.62340164,-88.96289825
"TCC, Verizon Authorized Dealer",1275 Woodlawn Road,Lincoln,IL,62656,"M-F 9-8, SAT 9-6, SUN 10-5",217-732-2900,40.1576004,-89.38939667
"TCC, Verizon Authorized Dealer",1017 Commerce Street,Fairfield,IL,62837,"M-F 9-8, SAT 9-7, SUN 10-5",618-842-2600,38.3769989,-88.35890198
"TCC, Verizon Authorized Dealer",719 W. Roosevelt Road,Glen Ellyn,IL,60137,"M-F 9-8, SAT 9-7, SUN 10-5",630-942-0883,41.8594017,-88.05639648
"TCC, Verizon Authorized Dealer",7261 W. Lake Street,River Forest,IL,60305,"M-F 9-8, SAT 9-7, SUN 10-5",708-771-1864,41.88800049,-87.83070374
"TCC, Verizon Authorized Dealer","9621 S. Cicero, Unit A103",Oak Lawn,IL,60453,"M-F 9-8, SAT 9-7, SUN 10-5",708-346-6139,41.71780014,-87.74060059
"TCC, Verizon Authorized Dealer",1702 West Reynolds Street,Pontiac,IL,61764,"M-F 9-8, SAT 9-7, SUN 10-5",815-842-0510,40.88090134,-88.62979889
"TCC, Verizon Authorized Dealer",1108 Collinsville Crossing Boulevard,Collinsville,IL,62234,"M-F 9-8, SAT 9-7, SUN 10-5",618-344-7608,38.67570114,-90.01540375
"TCC, Verizon Authorized Dealer","941 S. Cherokee, Suite 3",Marshall,MO,65340,"M-F 9-8, SAT 9-7, SUN 10-5",660-831-1298,39.10995865,-93.21360016
"TCC, Verizon Authorized Dealer",800 North MaGuire,Warrensburg,MO,64093,"M-F 9-8, SAT 9-7, SUN 10-5",660-429-0005,38.77270126,-93.73609924
"TCC, Verizon Authorized Dealer",714 S. Washington St,Chillicothe,MO,64601,"M-F 9-8, SAT 9-7, SUN 10-5",660-240-0293,39.79439926,-93.55370331
"TCC, Verizon Authorized Dealer",320 Homer M Adams Parkway,Alton,IL,62002,"M-F 9-8, SAT 9-7, SUN 10-5",618-433-2600,38.92110062,-90.1753006
"TCC, Verizon Authorized Dealer",697 E. Boughton Rd.,Bolingbrook,IL,60440,"M-F 9-8, SAT 9-7, SUN 10-5",630-783-0700,41.72109985,-88.04250336
"TCC, Verizon Authorized Dealer",525 East Norris Drive,Ottawa,IL,61350,"M-F 9-8, SAT 9-7, SUN 10-5",815-433-2900,41.35609818,-88.83529663
"TCC, Verizon Authorized Dealer",618 N Commercial St,Harrisburg,IL,62946,"M-F 9-8, SAT 9-7, SUN 10-5",618-253-4800,37.7431984,-88.5266037
"TCC, Verizon Authorized Dealer",1015 W Main St,Carmi,IL,62821,"M-F 9-8, SAT 9-7, SUN 10-5",618-382-3582,38.08119965,-88.17459869
"TCC, Verizon Authorized Dealer",1127 W. Gannon Dr.,Festus,MO,63028,"M-F 9-8, SAT 9-7, SUN 10-5",636-543-3488,38.21300125,-90.40329742
"TCC, Verizon Authorized Dealer",17575 S. Halsted Street,Homewood,IL,60430,"M-F 9-8, SAT 9-7, SUN 10-5",708-798-6141,41.57032013,-87.63626099
"TCC, Verizon Authorized Dealer",395 S Weber Road,Romeoville,IL,60446,"M-F 9-8, SAT 9-7, SUN 10-5",815-834-8000,41.61077881,-88.12247467
"TCC, Verizon Authorized Dealer",13039 LaGrange Rd.,Palos Park,IL,60464,"M-F 9-8, SAT 9-7, SUN 10-5",708-671-9550,41.65340042,-87.85399628
"TCC, Verizon Authorized Dealer","400 Terry Rich Blvd., Suite 3",St. Clair,PA,17970,"M-F 9-8, SAT 9-7, SUN 10-5",570-429-0571,40.72779846,-76.19339752
"TCC, Verizon Authorized Dealer","842 East Main Street, Suite 200",Ephrata,PA,17522,"M-F 9-8, SAT 9-7, SUN 10-5",717-733-4119,40.16500092,-76.15789795
"TCC, Verizon Authorized Dealer","7431 Westbranch Hwy., Suite 2",Lewisburg,PA,17837,"M-F 9-8, SAT 9-7, SUN 10-5",570-522-0725,40.98089981,-76.88400269
"TCC, Verizon Authorized Dealer","201 S. Conestoga Drive, Suite A2",Shippensburg,PA,17257,"M-F 9-8, SAT 9-7, SUN 10-5",717-530-1900,40.06560135,-77.49970245
"TCC, Verizon Authorized Dealer","604 Commons Drive, Suite D3",Oxford,PA,19363,"M-F 9-8, SAT 9-7, SUN 10-5",610-932-8792,39.79169846,-75.99259949
"TCC, Verizon Authorized Dealer",2704 Queen Street,York,PA,17403,"M-F 9-8, SAT 9-7, SUN 10-5",717-846-5051,39.90850067,-76.68099976
"TCC, Verizon Authorized Dealer","320 Highway 315, Suite 260 Pittston Crossing",Pittston Twp,PA,18640,"M-F 9-8, SAT 9-7, SUN 10-5",570-655-3574,41.32529831,-75.74479675
"TCC, Verizon Authorized Dealer","2450 Memorial Highway, Suite 8",Dallas,PA,18612,"M-F 9-8, SAT 9-7, SUN 10-5",570-674-4716,41.3409996,-75.97599792
"TCC, Verizon Authorized Dealer",1544 West Front Street,Berwick,PA,18603,"M-F 9-8, SAT 9-7, SUN 10-5",570-752-3762,41.04859924,-76.26080322
"TCC, Verizon Authorized Dealer",108 Newberry Parkway,Etters,PA,17319,"M-F 9-9, SAT 9-8, SUN 10-5",717-932-0154,40.15719986,-76.8187027
"TCC, Verizon Authorized Dealer",41 Londonderry Square,Palmyra,PA,17078,"M-F 9-8, SAT 9-7, SUN 10-5",717-838-8800,40.31990051,-76.56520081
"TCC, Verizon Authorized Dealer",1892 Elmira Street,Sayre,PA,18840,"M-F 9-9, SAT 9-7, SUN 10-5",570-888-0000,41.99000168,-76.54759979
"TCC, Verizon Authorized Dealer",833 Golden Mile Road,Towanda,PA,18848,"M-F 9-9, SAT 9-7, SUN 10-5",570-265-2207,41.76760101,-76.44270325
"TCC, Verizon Authorized Dealer",237 Hershey Rd.,Hummelstown,PA,17036,"M-F 9-8, SAT 9-7, SUN 10-5",717-566-3800,40.30580139,-76.69380188
"TCC, Verizon Authorized Dealer",12019 Business Park Blvd.,Champlin,MN,55316,"M-F 9-8, SAT 9-7, SUN 10-5",763-576-3085,45.17250061,-93.39089966
"TCC, Verizon Authorized Dealer","25 North Lake Street, Suite 140",Forest Lake,MN,55025,"M-F 9-8, SAT 9-7, SUN 10-5",651-982-9955,45.27980042,-92.98459625
"TCC, Verizon Authorized Dealer",3432 County Road 101,Minnetonka,MN,55345,"M-F 9-8, SAT 9-7, SUN 10-5",952-473-5000,44.94116974,-93.50280762
"TCC, Verizon Authorized Dealer",2141 Commerce Blvd.,Mound,MN,55364,"M-F 9-8, SAT 9-7, SUN 10-5",952-472-4868,44.93970108,-93.66609955
"TCC, Verizon Authorized Dealer",5980 Neil Avenue North,Oak Park Heights,MN,55082,"M-F 9-8, SAT 9-7, SUN 10-5",651-351-2021,45.03160095,-92.78790283
"TCC, Verizon Authorized Dealer","13590 Northdale Blvd, Suite 200",Rogers,MN,55374,"M-F 9-8, SAT 9-7, SUN 10-5",763-428-2599,45.20130158,-93.55400085
"TCC, Verizon Authorized Dealer",310 N. 8th Street,West Dundee,IL,60118,"M-F 9-8, SAT 9-7, SUN 10-5",847-551-1404,42.10010147,-88.28720093
"TCC, Verizon Authorized Dealer",3527 Lankford Highway,Exmore,VA,23350,"M-F 9-8, SAT 9-7, SUN 10-5",757-442-4826,37.52759934,-75.83119965
"TCC, Verizon Authorized Dealer","3135 Silverback Lane, Suite #102",Painted Post,NY,14870,"M-F 9-8, SAT 9-7, SUN 10-5",607-936-7040,42.15409851,-77.10389709
"TCC, Verizon Authorized Dealer",2901 E Main Street,Endwell,NY,13760,"M-F 10-7, SAT 10-7, SUN 10-5",607-748-4818,42.10609818,-76.02870178
"TCC, Verizon Authorized Dealer","Iroquois Centre 941 Route 17C, Suite 3",Owego,NY,13827,"M-F 9-8, SAT 9-7, SUN 10-5",607-687-1747,42.09949875,-76.23509979
"TCC, Verizon Authorized Dealer","1100 Clemens Center Pkwy, Suite A",Elmira,NY,14901,"M-F 9-9, SAT 9-7, SUN 10-5",607-735-9833,42.10580063,-76.80940247
"TCC, Verizon Authorized Dealer","1308 Vestal Parkway East, Unit 4",Vestal,NY,13850,"M-F 10-7, SAT 10-7, SUN 10-5",607-786-2415,42.09149933,-76.02839661
"TCC, Verizon Authorized Dealer",5403 State Route 12,Norwich,NY,13815,"M-F 9-8, SAT 9-7, SUN 10-5",607-336-6050,42.49909973,-75.52839661
"TCC, Verizon Authorized Dealer",353 West Morris Street,Bath,NY,14810,"M-F 9-8, SAT 9-7, SUN 10-5",607-776-4225,42.33860016,-77.33329773
"TCC, Verizon Authorized Dealer",1247 Front St,Binghamton,NY,13905,"M-F 9-8, SAT 9-7, SUN 10-5",607-722-0729,42.15639877,-75.89630127
"TCC, Verizon Authorized Dealer","2960 Center Valley Pkwy, Suite 744",Center Valley,PA,18034,"M-F 10-9, SAT 10-9, SUN 11-6",610-841-9606,40.55879974,-75.41139984
"TCC, Verizon Authorized Dealer",465 E. Baltimore Street,Taneytown,MD,21787,"M-F 9-8, SAT 9-7, SUN 10-5",410-756-6959,39.65119934,-77.16030121
"TCC, Verizon Authorized Dealer",864 North US Route 15,Dillsburg,PA,17019,"M-F 9-8, SAT 11-7, SUN 10-5",717-432-3801,40.13069916,-77.01999664
"TCC, Verizon Authorized Dealer",9 Shining Willow Way,LaPlata,MD,20646,"M-F 9-8, SAT 9-7, SUN 10-5",301-392-3431,38.54299927,-76.97949982
"TCC, Verizon Authorized Dealer","2146 Old Snow Hill Road, Suite 1",Pocomoke City,MD,21851,"M-F 9-8, SAT 9-7, SUN 10-5",410-957-0359,38.07509995,-75.55519867
"TCC, Verizon Authorized Dealer","26437 Ridge Road, Unit 1",Damascus,MD,20872,"M-F 9-8, SAT 9-7, SUN 10-5",301-391-6111,39.29059982,-77.20469666
"TCC, Verizon Authorized Dealer",510 North East Plaza,North East,MD,21901,"M-F 9-8, SAT 9-7, SUN 10-5",410-287-5482,39.61090088,-75.94879913
"TCC, Verizon Authorized Dealer","7820 Wormans Mill Road, Suite S",Frederick,MD,21701,"M-F 9-9, SAT 9-8, SUN 10-5",301-644-1195,39.44929886,-77.39910126
"TCC, Verizon Authorized Dealer",11737 HG Trueman Road,Lusby,MD,20657,"M-F 9-8, SAT 9-7, SUN 10-5",410-326-2874,38.37369919,-76.43849945
"TCC, Verizon Authorized Dealer","11001 Manklin Creek Road, Unit 3",Ocean Pines,MD,21811,"M-F 9-8, SAT 9-7, SUN 10-5",410-629-1028,38.37760162,-75.15799713
"TCC, Verizon Authorized Dealer",4903 South Emerson Ave,Indianapolis,IN,46203,MON-FRI 9-8 SAT 9-7 SUN 10-5,317-786-8702,39.69599915,-86.08229828
"TCC, Verizon Authorized Dealer",671 E. Main Street,Danville,IN,46122,"M-F 9-8, SAT 9-7, SUN 10-5",317-718-1140,39.75899887,-86.51129913
"TCC, Verizon Authorized Dealer","750 N Germantown Parkway, Suite 111",Cordova,TN,38018,"M-F 9-8, SAT 9-7, SUN 10-5",901-737-0708,35.145401,-89.79530334
"TCC, Verizon Authorized Dealer","8100 Camp Creek Blvd, Suite 101",Olive Branch,MS,38654,"M-F 9-8, SAT 9-7, SUN 10-5",662-890-9486,34.96469879,-89.84729767
"TCC, Verizon Authorized Dealer","201 Deadrick Rd., Suite 700",Forrest City,AR,72335,"M-F 9-8, SAT 9-7, SUN 10-5",870-630-0907,35.0298996,-90.79100037
"TCC, Verizon Authorized Dealer",3710 E Main Street,Blytheville,AR,72315,"M-F 9-8, SAT 9-7, SUN 10-5",870-762-4738,35.92890167,-89.87329865
"TCC, Verizon Authorized Dealer","3078 East Avenue, Suite A",Central Square,NY,13036,"M-F 9-8, SAT 9-7, SUN 10-5",315-668-0073,43.28760147,-76.13420105
"TCC, Verizon Authorized Dealer","4770 Transit Road, Suite 300",Depew,NY,14043,"M-F 9-9, SAT 9-7, SUN 10-5",716-668-4848,42.86849976,-78.69750214
"TCC, Verizon Authorized Dealer","2290 Delaware Avenue, Suite 800",Buffalo,NY,14216,"M-F 9-9, SAT 9-7, SUN 10-5",716-875-1510,42.94609833,-78.86889648
"TCC, Verizon Authorized Dealer",898 South First Street,Fulton,NY,13069,"M-F 9-8, SAT 9-7, SUN 10-5",315-593-0679,43.3083992,-76.3993988
"TCC, Verizon Authorized Dealer",13125 Broadway Street,Alden,NY,14004,"M-F 9-8, SAT 9-7, SUN 10-5",716-937-9472,42.89861298,-78.50021362
"TCC, Verizon Authorized Dealer",4245 Lakeville Road,Geneseo,NY,14454,"M-F 9-8, SAT 9-7, SUN 10-5",585-243-9480,42.79769898,-77.7888031
"TCC, Verizon Authorized Dealer",543 S. Lake Road South,Scottsburg,IN,47170,"M-F 9-8, SAT 9-7, SUN 10-5",812-752-6300,38.68429947,-85.79419708
"TCC, Verizon Authorized Dealer",12770 Adams Road,Granger,IN,46530,"M-F 9-8, SAT 9-7, SUN 10-5",574-243-3698,41.75350189,-86.11840057
"TCC, Verizon Authorized Dealer","705 Plaza Drive, Suite 1",Chesterton,IN,46304,"M-F 9-8, SAT 9-7, SUN 10-5",219-983-1480,41.61700058,-87.04489899
"TCC, Verizon Authorized Dealer",8358 E 96th Street,Fishers,IN,46037,"M-F 9-8, SAT 9-7, SUN 10-5",317-842-4265,39.9272995,-86.01979828
"TCC, Verizon Authorized Dealer",2712 Caragana Court,Goshen,IN,46526,"M-F 9-8, SAT 9-7, SUN 10-5",574-534-5625,41.55479813,-85.79149628
"TCC, Verizon Authorized Dealer",6054 Central Ave,Portage,IN,46368,"M-F 9-8, SAT 9-7, SUN 10-5",219-762-0885,41.57580185,-87.18139648
"TCC, Verizon Authorized Dealer",2020 E Markland Ave.,Kokomo,IN,46901,"M-F 9-8, SAT 9-8, SUN 10-5",765-868-3039,40.47710037,-86.10279846
"TCC, Verizon Authorized Dealer",3856 Rome Road,Pulaski,NY,13142,"M-F 9-8, SAT 9-7, SUN 10-5",315-298-7355,43.55920029,-76.12090302
"TCC, Verizon Authorized Dealer",6774 State Road 31E,Newark,NY,14513,"M-F 9-8, SAT 9-7, SUN 10-5",315-331-2612,43.05509949,-77.05590057
"TCC, Verizon Authorized Dealer",3245 Southwestern Blvd.,Orchard Park,NY,14127,"M-F 9-8, SAT 9-7, SUN 10-5",716-674-3294,42.79629898,-78.75140381
"TCC, Verizon Authorized Dealer",350 Hamilton St.,Geneva,NY,14456,"M-F 9-8, SAT 9-7, SUN 10-5",315-789-1572,42.85839844,-76.99759674
"TCC, Verizon Authorized Dealer",2362 Lyell Avenue,Rochester,NY,14606,"M-F 9-8, SAT 9-7, SUN 10-5",585-247-2220,43.16479874,-77.69029999
"TCC, Verizon Authorized Dealer",1475 Western Ave.,Albany,NY,12203,"M-F 9-8, SAT 9-7, SUN 10-5",518-621-7751,42.68360138,-73.84069824
"TCC, Verizon Authorized Dealer","1000 State Road 36, Suite 7",Hornell,NY,14843,"M-F 9-9, SAT 9-7, SUN 10-5",607-324-0350,42.34767914,-77.66880035
"TCC, Verizon Authorized Dealer",1386 Atwood Ave,Johnston,RI,2919,"M-F 9-8, SAT 9-7, SUN 10-5",401-942-7381,41.81549835,-71.49739838
"TCC, Verizon Authorized Dealer",207 Fairview Avenue,Hudson,NY,12534,"M-F 10-7, SAT 10-7, SUN 10-5",518-828-9990,42.25979996,-73.76580048
"TCC, Verizon Authorized Dealer",40 Grandview Plaza,Catskill,NY,12414,"M-F 9-8, SAT 9-7, SUN 10-5",518-943-7800,42.21530151,-73.88659668
"TCC, Verizon Authorized Dealer","720 Hoosick Rd Buiding W1, Unit 5",Troy,NY,12180,"M-F 9-8, SAT 9-7, SUN 10-5",518-272-2450,42.74359894,-73.6446991
"TCC, Verizon Authorized Dealer","980 Main Street, Suite 1",Cobleskill,NY,12043,"M-F 9-8, SAT 9-7, SUN 10-5",518-234-3646,42.67919922,-74.46510315
"TCC, Verizon Authorized Dealer","3 Highland Commons East, Suite 100",Hudson,MA,1749,"M-F 9-8, SAT 9-7, SUN 10-5",978-562-6192,42.39450073,-71.59500122
"TCC, Verizon Authorized Dealer",137 University Ave,Westwood,MA,2090,"M-F 9-8, SAT 9-7, SUN 10-5",781-467-1295,42.21149826,-71.14969635
"TCC, Verizon Authorized Dealer",371 Centre Avenue,Abington,MA,2351,"M-F 9-8, SAT 9-7, SUN 10-5",781-261-9747,42.11100006,-70.93039703
"TCC, Verizon Authorized Dealer",25 Taunton Depot Drive,Taunton,MA,2780,"M-F 9-8, SAT 9-7, SUN 10-5",508-822-3900,41.92409897,-71.12110138
"TCC, Verizon Authorized Dealer",305 Boston Road,North Billerica,MA,1862,"M-F 9-8, SAT 9-7, SUN 10-5",978-670-5500,42.5707016,-71.27799988
"TCC, Verizon Authorized Dealer","350 Palmer Road, Suite 125",Ware,MA,1082,"M-F 9-8, SAT 9-7, SUN 10-5",413-277-9507,42.23948669,-72.27918243
"TCC, Verizon Authorized Dealer",1230 Newport Ave S,Attleboro,MA,2703,"M-F 9-8, SAT 9-7, SUN 10-5",508-761-5015,41.89870071,-71.35500336
"TCC, Verizon Authorized Dealer",2434 Berlin Turnpike,Newington,CT,6111,"M-F 9-8, SAT 9-7, SUN 10-5",860-665-0107,41.68420029,-72.70929718
"TCC, Verizon Authorized Dealer",14 Farmington Avenue,Plainville,CT,6062,"M-F 9-8, SAT 9-7, SUN 10-5",860-793-4802,41.67649841,-72.85739899
"TCC, Verizon Authorized Dealer",1007 New Haven Road,Naugatuck,CT,6770,"M-F 9-8, SAT 9-7, SUN 10-5",203-720-9291,41.46989822,-73.0326004
"TCC, Verizon Authorized Dealer","179 Deming Street, Unit 10",Manchester,CT,6042,"M-F 9-8, SAT 9-7, SUN 10-5",860-648-0229,41.81409836,-72.52770233
"TCC, Verizon Authorized Dealer",143 Franklin Street,Westerly,RI,2891,"M-F 9-8, SAT 9-7, SUN 10-5",401-596-2705,41.35850143,-71.80970001
"TCC, Verizon Authorized Dealer",5200 Avenue of the Cities,Moline,IL,61265,"M-F 9-8, SAT 9-7, SUN 10-5",309-762-6100,41.48939896,-90.4661026
"TCC, Verizon Authorized Dealer","1800 N. Division Road, Suite C",Davenport,IA,52804,"M-F 9-8, SAT 9-7, SUN 10-5",563-322-3000,41.53760147,-90.60109711
"TCC, Verizon Authorized Dealer","1663 Lincolnway, Suite G",Clinton,IA,52732,"M-F 9-8, SAT 9-7, SUN 10-5",563-243-0093,41.81629944,-90.22579956
"TCC, Verizon Authorized Dealer",3850 18th Avenue,Rock Island,IL,61201,"M-F 9-8, SAT 9-7, SUN 10-5",309-786-1035,41.49330139,-90.54679871
"TCC, Verizon Authorized Dealer",1205 N 2nd Street,Clinton,IA,52732,"M-F 9-8, SAT 9-7, SUN 10-5",563-243-2250,41.85739899,-90.18530273
"TCC, Verizon Authorized Dealer",1910 N Henderson,Galesburg,IL,61401,"M-F 9-8, SAT 9-7, SUN 10-5",309-343-1054,40.97050095,-90.38310242
"TCC, Verizon Authorized Dealer",107 1st Ave,Rock Falls,IL,61071,"M-F 9-8, SAT 9-7, SUN 10-5",815-625-2096,41.78290176,-89.69210052
"TCC, Verizon Authorized Dealer",4204 E. Lincoln Way,Sterling,IL,61081,"M-F 9-8, SAT 9-7, SUN 10-5",815-625-4720,41.81280136,-89.6529007
"TCC, Verizon Authorized Dealer",29498 Seven Mile Road,Livonia,MI,48152,"M-F 9-8, SAT 9-7, SUN 10-5",248-427-0631,42.42750168,-83.34089661
"TCC, Verizon Authorized Dealer",36700 Garfield Road,Clinton Township,MI,48035,"M-F 9-8, SAT 9-7, SUN 10-5",586-415-8960,42.56700134,-82.95079803
"TCC, Verizon Authorized Dealer",46540 Michigan Ave,Canton,MI,48188,"M-F 9-8, SAT 9-7, SUN 10-5",734-495-1854,42.26900101,-83.49859619
"TCC, Verizon Authorized Dealer",36610 Ford Rd.,Westland,MI,48185,"M-F 9-8, SAT 9-7, SUN 10-5",734-729-4910,42.32460022,-83.40139771
"TCC, Verizon Authorized Dealer","1498 E. Main Street, Suite 101 & 102",Cottage Grove,OR,97424,"M-F 9-8, SAT 9-7, SUN 10-5",541-942-1400,43.79759979,-123.072998
"TCC, Verizon Authorized Dealer","2775 Highway 101, Suite D",Florence,OR,97439,"M-F 9-8, SAT 9-7, SUN 10-5",541-997-1818,43.99069977,-124.1019974
"TCC, Verizon Authorized Dealer",142 NE Terry Lane,Grants Pass,OR,97526,"M-F 9-8, SAT 9-7, SUN 10-5",541-476-2181,42.43529892,-123.3030014
"TCC, Verizon Authorized Dealer",1315 Center Dr.,Medford,OR,97501,"M-F 9-8, SAT 9-7, SUN 10-5",541-772-3890,42.31280136,-122.8560028
"TCC, Verizon Authorized Dealer","2050 Beavercreek Rd., Suite 105",Oregon City,OR,97045,"M-F 9-8, SAT 9-7, SUN 10-5",503-656-4545,45.33399963,-122.586998
"TCC, Verizon Authorized Dealer","400 Mt. Hood Street, Suite 100",The Dalles,OR,97058,"M-F 9-8, SAT 9-7, SUN 10-5",541-296-0985,45.60580063,-121.1949997
"TCC, Verizon Authorized Dealer",14825 Main St.,Bellevue,WA,98007,"M-F 9-8, SAT 9-7, SUN 10-5",425-643-8448,47.60979843,-122.1429977
"TCC, Verizon Authorized Dealer","1585 West Main St., Suite A",Molalla,OR,97038,"M-F 9-8, SAT 9-7, SUN 10-5",503-759-6004,45.14929962,-122.5940018
"TCC, Verizon Authorized Dealer",1111 Johnson Road,Centralia,WA,98531,"M-F 9-8, SAT 9-7, SUN 10-5",360-807-8888,46.72909927,-122.9820023
"TCC, Verizon Authorized Dealer","15105 Main Street E., Suite 108",Sumner,WA,98390,"M-F 9-8, SAT 9-7, SUN 10-5",253-891-5424,47.20289993,-122.2279968
"TCC, Verizon Authorized Dealer",4750 Royal Avenue,Eugene,OR,97402,"M-F 9-8, SAT 9-7, SUN 10-5",541-688-9999,44.0699997,-123.1790009
"TCC, Verizon Authorized Dealer",1565 N E Third Street #A,Prineville,OR,97754,"M-F 9-8, SAT 9-7, SUN 10-5",541-416-0223,44.30289841,-120.8290024
"TCC, Verizon Authorized Dealer",5310 Pacific Highway East,Fife,WA,98424,"M-F 9-8, SAT 9-7, SUN 10-5",253-926-4632,47.24290085,-122.3580017
"TCC, Verizon Authorized Dealer",109 S Water Street,Ellensburg,WA,98926,"M-F 9-8, SAT 9-7, SUN 10-5",509-925-1860,46.99219894,-120.5500031
"TCC, Verizon Authorized Dealer","2296 Gable Rd., Suite 240",St. Helens,OR,97051,"M-F 9-8, SAT 9-7, SUN 10-5",503-410-5753,45.8484993,-122.8300018
"TCC, Verizon Authorized Dealer","19620 Hwy 99, Suite 110",Lynnwood,WA,98036,"M-F 9-8, SAT 9-7, SUN 10-5",425-640-0192,47.8205986,-122.3160019
"TCC, Verizon Authorized Dealer",10929 Canyon Rd. East,Puyallup,WA,98373,"M-F 9-8, SAT 9-7, SUN 10-5",253-537-3110,47.15679932,-122.3570023
"TCC, Verizon Authorized Dealer","22205 Meridian Ave East, Suite B-2",Graham,WA,98338,"M-F 9-8, SAT 9-7, SUN 10-5",253-875-6901,47.05410004,-122.2939987
"TCC, Verizon Authorized Dealer","3904 Bridgeport Way West, Suite C",University Place,WA,98466,"M-F 9-8, SAT 9-7, SUN 10-5",253-460-9403,47.22190094,-122.5370026
"TCC, Verizon Authorized Dealer",1041 George Washington Way,Richland,WA,99352,"M-F 9-8, SAT 9-7, SUN 10-5",509-942-1555,46.28129959,-119.2740021
"TCC, Verizon Authorized Dealer","1200 Cooper Point Rd, Suite #805",Olympia,WA,98502,M-F 9-8 SAT 9-7 SUN 10-5,360-754-5192,47.0556984,-122.9410019
"TCC, Verizon Authorized Dealer",23916-B SE Kent Kangley Rd,Maple Valley,WA,98038,"M-F 9-8, SAT 9-7, SUN 10-5",425-432-1617,47.3614006,-122.0220032
"TCC, Verizon Authorized Dealer","701 McClaine Street, Suite B",Silverton,OR,97381,"M-F 9-8, SAT 9-7, SUN 10-5",503-874-0393,45.00579834,-122.7919998
"TCC, Verizon Authorized Dealer","1820 Commercial Ave, Suite A",Anacortes,WA,98221,"M-F 9-8, SAT 9-7, SUN 10-5",360-899-9114,48.50712204,-122.6128998
"TCC, Verizon Authorized Dealer","23969 State Road 3, Suite F",Belfair,WA,98528,"M-F 9-8, SAT 9-7, SUN 10-5",360-275-9995,47.45420075,-122.8239975
"TCC, Verizon Authorized Dealer","2149 W. Cascade Ave, Suite 104",Hood River,OR,97031,"M-F 9-8, SAT 9-7, SUN 10-5",541-308-0298,45.70880127,-121.5339966
"TCC, Verizon Authorized Dealer",45 North East Plum Street,Madras,OR,97741,"M-F 9-8, SAT 9-7, SUN 10-5",541-475-7234,44.64179993,-121.1289978
"TCC, Verizon Authorized Dealer","6410 W. Nob Hill Blvd., Suite 101",Yakima,WA,98908,"M-F 9-8, SAT 9-7, SUN 10-5",509-965-5522,46.58570099,-120.5940018
"TCC, Verizon Authorized Dealer",35007 Enchanted Parkway South,Federal Way,WA,98003,"M-F 9-8, SAT 9-7, SUN 10-5",253-874-7162,47.28779984,-122.314003
"TCC, Verizon Authorized Dealer",3186 Lawrenceville-Suwanee,Suwanee,GA,30024,"M-F 9-8, SAT 9-8, SUN 10-5",678-804-6680,34.03735733,-84.05321503
"TCC, Verizon Authorized Dealer","320 W Kimberly Road, North Park Mall #0069",Davenport,IA,52806,"M-F 9-8, SAT 9-7, SUN 10-5",563-386-1931,41.56340027,-90.57559967
"TCC, Verizon Authorized Dealer","150 E Sheldon St., Suite D1113",Prescott,AZ,86301,"M-F 9-8, SAT 9-7, SUN 10-5",928-445-0348,34.54570007,-112.4690018
"TCC, Verizon Authorized Dealer","3655 West Anthem Way, Suite A101",Anthem,AZ,85086,M-F 9-8 SAT 9-7 SUN 10-5,623-551-9208,33.86560059,-112.1389999
"TCC, Verizon Authorized Dealer","6501 E. Grant Road, Suite 101",Tucson,AZ,85712,"M-F 9-8, SAT 9-7, SUN 10-5",520-867-6277,32.25019836,-110.8519974
"TCC, Verizon Authorized Dealer","10001 West Bell Road, Suite 154 and 157",Sun City,AZ,85321,"M-F 9-8, SAT 9-7, SUN 10-5",623-583-2240,33.6371994,-112.276001
"TCC, Verizon Authorized Dealer",4758 Sunrise Drive,Tucson,AZ,85718,M-F 9-8 SAT 9-7 SUN 10-5,520-299-1453,32.30830002,-110.8909988
"TCC, Verizon Authorized Dealer",12060 N. Thornydale Road,Marana,AZ,85658,"M-F 9-8, SAT 9-7, SUN 10-5",520-744-7111,32.42570114,-111.0459976
"TCC, Verizon Authorized Dealer","1800 S. Milton Road, Suite 400",Flagstaff,AZ,86001,"M-F 9-8, SAT 9-7, SUN 10-5",928-213-5888,35.18270111,-111.6610031
"TCC, Verizon Authorized Dealer","1580 E. Tucson Marketplace Blvd, Suite 160",Tucson,AZ,85713,"M-F 9-8, SAT 9-7, SUN 10-5",520-686-0720,32.18709946,-110.9540024
"TCC, Verizon Authorized Dealer",864 Main Street,Wintersville,OH,43953,"M-F 9-8, SAT 9-8, SUN 10-5",740-346-0655,40.37440109,-80.69950104
"TCC, Verizon Authorized Dealer","3939 Massillon Rd., Suite 501",Uniontown,OH,44685,"M-F 9-8, SAT 9-7, SUN 10-5",330-899-1667,40.95399857,-81.46489716
"TCC, Verizon Authorized Dealer",2728-B E. Aurora Road,Twinsburg,OH,44087,"M-F 9-8, SAT 9-8, SUN 10-5",330-963-0367,41.31110001,-81.44090271
"TCC, Verizon Authorized Dealer",100 Mall Drive (Ft. Steuben Mall),Steubenville,OH,43952,"M-F 10-9, SAT 10-9, SUN 9-9",740-346-0799,40.36640167,-80.67099762
"TCC, Verizon Authorized Dealer","241 Three Springs Drive, Suite 2021",Weirton,WV,26062,"M-F 9-8, SAT 9-8, SUN 10-5",304-740-5030,40.40520096,-80.54969788
"TCC, Verizon Authorized Dealer","3200 Greenwich Road, Suite 17",Norton,OH,44203,"M-T 9-8, FRI 8-9, SAT 8-8, SUN 9-7 ",330-825-7720,41.0257988,-81.64060211
"TCC, Verizon Authorized Dealer","2203 Sunset Blvd., Suite 3",Steubenville,OH,43952,"M-F 9-8, SAT 9-8, SUN 10-5",740-346-2624,40.36920166,-80.6414032
"TCC, Verizon Authorized Dealer",4332 Tuscarawas St. W.,Canton,OH,44708,"M-F 9-8, SAT 9-8, SUN 10-5",234-804-3211,40.79600143,-81.42590332
"TCC, Verizon Authorized Dealer","3975 Cascades Blvd, Unit 20",Kent,OH,44240,"M-F 9-8, SAT 9-8, SUN 10-5",330-968-4951,41.09740067,-81.38809967
"TCC, Verizon Authorized Dealer","5688 West Broad St., Suite B",Galloway,OH,43119,"M-F 9-8, SAT 9-8, SUN 10-5",614-870-3382,39.95209885,-83.15170288
"TCC, Verizon Authorized Dealer",1048 Ashland Road,Mansfield,OH,44905,"M-F 9-8, SAT 9-8, SUN 10-5",419-775-5906,40.77500153,-82.47679901
"TCC, Verizon Authorized Dealer",2181 E. Maple St.,North Canton,OH,44720,"M-F 9-8, SAT 9-8, SUN 10-5",330-966-6629,40.87509918,-81.36820221
"TCC, Verizon Authorized Dealer",5507 Mahoning Ave.,Austintown,OH,44515,"M-F 9-8, SAT 9-8, SUN 10-5",330-953-0874,41.09909821,-80.76450348
"TCC, Verizon Authorized Dealer",2870 E. State St.,Salem,OH,44460,"M-F 9-8, SAT 9-8, SUN 10-5",330-337-3810,40.90219879,-80.8187027
"TCC, Verizon Authorized Dealer",967 S. Main Street,Sauk Centre,MN,56378,"M-F 9-8, SAT 9-7, SUN 10-5",320-352-5600,45.72790146,-94.95140076
"TCC, Verizon Authorized Dealer",1006 5th Street SE,Milaca,MN,56353,"M-F 9-8, SAT 9-7, SUN 10-5",320-983-5500,45.75880051,-93.63089752
"TCC, Verizon Authorized Dealer",212 Red River Ave,Cold Spring,MN,56320,"M-F 9-7, SAT 9-7, SUN - CLOSED",320-685-8800,45.45819855,-94.42900085
"TCC, Verizon Authorized Dealer",525 Congressional Blvd.,Carmel,IN,46032,,,39.95949936,-86.14749908
"TCC, Verizon Authorized Dealer",525 Congressional Blvd.,Carmel,IN,46037,,,39.95983505,-86.147789
"TCC, Verizon Authorized Dealer","295 Rucker Rd., Suite 140",Alpharetta,GA,30004,"M-F 9-8, SAT 9-8, SUN 12-6",770-777-4870,34.07720184,-84.35569763
"TCC, Verizon Authorized Dealer",8514 Holcomb Bridge Road,Alpharetta,GA,30022,"M-F 9-8, SAT 9-8, SUN 12-6",678-382-0570,33.9864006,-84.271698
"TCC, Verizon Authorized Dealer","3005 Old Alabama Road, Suite 20",Alpharetta,GA,30022,"M-F 9-8, SAT 9-8, SUN 12-6",470-246-5726,34.020401,-84.27249908
"TCC, Verizon Authorized Dealer","3700 Atlanta Hwy, Unit 139",Athens,GA,30606,"M-F 10-9, SAT 10-9, SUN 12-6",706-208-1116,33.94079971,-83.46510315
"TCC, Verizon Authorized Dealer","766 Hwy 96, Suite 325",Bonaire,GA,31005,"M-F 9-8, SAT 9-8, SUN 12-6",478-988-8776,32.55450058,-83.65000153
"TCC, Verizon Authorized Dealer","4504 Holly Spring Pkwy, Suite 102B",Canton,GA,30115,"M-F 9-8, SAT 9-8, SUN 12-6",770-635-2039,34.145401,-84.51270294
"TCC, Verizon Authorized Dealer",1830 Georgia Hwy 20 South,Conyers,GA,30013,"M-F 9-8, SAT 9-8, SUN 12-6",770-922-6484,33.64099884,-84.01439667
"TCC, Verizon Authorized Dealer","3480 Keith Bridge Rd., Suite A-2",Cumming,GA,30041,"M-F 9-8, SAT 9-8, SUN 12-6",678-208-6415,34.25790024,-84.0714035
"TCC, Verizon Authorized Dealer",335-D W. Ponce De Leon Ave,Decatur,GA,30030,"M-F 9-8, SAT 9-8, SUN 12-6",404-975-3660,33.7757988,-84.30139923
"TCC, Verizon Authorized Dealer","6603 Sugarloaf Pkwy, Suite 108",Duluth,GA,30097,"M-F 9-8, SAT 9-8, SUN 12-6",678-957-3996,33.99950028,-84.09329987
"TCC, Verizon Authorized Dealer",271 Walmart Court,Eastanollee,GA,30538,"M-F 9-8, SAT 9-8, SUN 12-6",706-886-2826,34.54759979,-83.28309631
"TCC, Verizon Authorized Dealer","1943 Jesse Jewell Pkwy, Suite 500",Gainesville,GA,30501,"M-F 9-8, SAT 9-8, SUN 12-6",678-450-4440,34.28749847,-83.83779907
"TCC, Verizon Authorized Dealer","3920 Cherokee St. NW, Suite 100",Kennesaw,GA,30144,"M-F 9-8, SAT 9-8, SUN 12-6",770-726-0963,34.04850006,-84.59770203
"TCC, Verizon Authorized Dealer",1531 Eatonton Rd. Hwy 441,Madison,GA,30650,"M-F 9-8, SAT 9-8, SUN 12-6",706-343-1069,33.59569931,-83.46790314
"TCC, Verizon Authorized Dealer","3605 Sandy Plains Rd., Suite 320",Marietta,GA,30066,"M-F 9-8, SAT 9-8, SUN 12-6",770-702-1206,34.03839874,-84.46520233
"TCC, Verizon Authorized Dealer",1557 Highway 20 West,McDonough,GA,30253,"M-F 9-8, SAT 9-8, SUN 12-6",770-957-0600,33.42039871,-84.18910217
"TCC, Verizon Authorized Dealer","1986 West Spring St., Suite A11",Monroe,GA,30655,"M-F 9-8, SAT 9-8, SUN 12-6",678-635-8540,33.79439926,-83.74169922
"TCC, Verizon Authorized Dealer","1365 Sam Nunn Blvd., Suite L",Perry,GA,31069,"M-F 9-8, SAT 9-8, SUN 12-6",478-987-9171,32.46689987,-83.74089813
"TCC, Verizon Authorized Dealer","55 E. May St., Suite A",Winder,GA,30680,"M-F 9-8, SAT 9-8, SUN 12-6",770-867-0150,33.98870087,-83.72029877
"TCC, Verizon Authorized Dealer","12154 Highway 92, Suite 100",Woodstock,GA,30188,"M-F 9-8, SAT 9-8, SUN 12-6",770-516-6586,34.0870018,-84.48329926
"TCC, Verizon Authorized Dealer","3601 Richland Ave. West, Suite ",Aiken,SC,29801,"M-F 9-8, SAT 9-8, SUN 12-6",803-644-3305,33.56280136,-81.76709747
"TCC, Verizon Authorized Dealer","1815 E. Greenville St., Suite A",Anderson,SC,29621,"M-F 9-8, SAT 9-8, SUN 12-6",864-225-3120,34.53950119,-82.63089752
"TCC, Verizon Authorized Dealer",334 S. Main Street,Belton,SC,29627,"M-F 9-8, SAT 9-8, SUN 12-6",864-392-1501,34.51689911,-82.48860168
"TCC, Verizon Authorized Dealer","1276 18 Mile Rd., Suite A",Central,SC,29630,"M-F 9-8, SAT 9-8, SUN 12-6",864-639-7781,34.70809937,-82.76110077
"TCC, Verizon Authorized Dealer","130 Amicks Ferry Rd., Suite A",Chapin,SC,29036,"M-F 9-8, SAT 9-8, SUN 12-6",803-345-9707,34.1631012,-81.35520172
"TCC, Verizon Authorized Dealer",2098 E. Main Street,Duncan,SC,29334,"M-F 9-8, SAT 9-8, SUN 12-6",864-249-6526,34.88840103,-82.07170105
"TCC, Verizon Authorized Dealer",2007 Augusta Road,Greenville,SC,29605,"M-F 9-8, SAT 9-8, SUN 12-6",864-282-8050,34.8056984,-82.37960052
"TCC, Verizon Authorized Dealer",3550 Highway 153,Greenville,SC,29611,"M-F 9-8, SAT 9-8, SUN 12-6",864-991-8868,34.78979874,-82.48449707
"TCC, Verizon Authorized Dealer",3935-G Pelham Road,Greenville,SC,29615,"M-F 9-8, SAT 9-8, SUN 12-6",864-284-1000,34.86059952,-82.26309967
"TCC, Verizon Authorized Dealer","1100 Dutch Fork Rd., Suite L",Irmo,SC,29063,"M-F 9-8, SAT 9-8, SUN 12-6",803-407-0362,34.12659836,-81.21910095
"TCC, Verizon Authorized Dealer","810 E. Main Street, Suite A",Laurens,SC,29360,"M-F 9-8, SAT 9-8, SUN 12-6",864-715-0888,34.49380112,-81.9865036
"TCC, Verizon Authorized Dealer","851 Highway 378, Suite 104",Lexington,SC,29072,"M-F 9-8, SAT 9-8, SUN 12-6",803-399-2005,33.99140167,-81.30680084
"TCC, Verizon Authorized Dealer",113 Heritage Drive,Newberry,SC,29108,"M-F 9-8, SAT 9-8, SUN 12-6",803-321-9747,34.28300095,-81.59159851
"TCC, Verizon Authorized Dealer","2603 Woodruff Rd., Unit A",Simpsonville,SC,29681,"M-F 9-8, SAT 9-8, SUN 12-6",864-631-1240,34.80630112,-82.23110199
"TCC, Verizon Authorized Dealer","2190 Southport Rd., Suite 13",Spartanburg,SC,29302,"M-F 9-8, SAT 9-8, SUN 12-6",864-699-9367,34.91970062,-81.88819885
"TCC, Verizon Authorized Dealer",430 W. Hanley Ave.,Coeur d'Alene,ID,83815,"M-F 9-8, SAT 9-7, SUN 10-5",208-765-7595,47.72969818,-116.7929993
"TCC, Verizon Authorized Dealer",1700 Northwest Blvd.,Coeur d'Alene,ID,83814,"M-F 9-8, SAT 9-7, SUN 10-5",208-664-4229,47.69120026,-116.8000031
"TCC, Verizon Authorized Dealer",477100 N. Hwy 95,Ponderay,ID,83852,"M-F 9-8, SAT 9-7, SUN 10-6",208-263-9925,48.30929947,-116.5459976
"TCC, Verizon Authorized Dealer",3760 E. Seltice Way,Post Falls,ID,83854,"M-F 9-8, SAT 9-7, SUN 10-5",208-619-6100,47.70970154,-116.8970032
"TCC, Verizon Authorized Dealer",201 Superior,Sandpoint,ID,83864,"M-F 9-7, SAT 10-4, SUN - CLOSED",208-263-2929,48.27090073,-116.5490036
"TCC, Verizon Authorized Dealer",85 Hall Ave.,Coos Bay,OR,97420,"M-F 9-8, SAT 10-7, SUN 10-5",541-808-3730,43.36109924,-124.2129974
"TCC, Verizon Authorized Dealer",303 NW Harrison Blvd.,Corvallis,OR,97330,"M-F 9-8, SAT 9-7, SUN 10-5",541-752-8888,44.56750107,-123.2590027
"TCC, Verizon Authorized Dealer",498 Union Ave.,Grants Pass,OR,97527,"M-F 9-8, SAT 9-7, SUN 10-5",541-476-1949,42.42269898,-123.3399963
"TCC, Verizon Authorized Dealer",143 Thain Rd.,Lewiston,ID,83501,"M-F 9-8, SAT 9-7, SUN 10-5",208-799-0800,46.3893013,-116.987999
"TCC, Verizon Authorized Dealer",1779 N. Riverside Ave.,Medford,OR,97501,"M-F 9-8, SAT 9-7, SUN 10-5",541-772-0939,42.34469986,-122.8809967
"TCC, Verizon Authorized Dealer",1611 Virginia Ave.,North Bend,OR,97459,"M-F 10-8, SAT 10-6, SUN 11-6",541-751-8000,43.40499878,-124.2340012
"TCC, Verizon Authorized Dealer",1671 East Idaho Avenue,Ontario,OR,97914,"M-F 9-8, SAT 9-7, SUN 10-5",541-889-4477,44.02510071,-116.9410019
"TCC, Verizon Authorized Dealer",316 Garden Valley Blvd.,Roseburg,OR,97470,"M-F 9-8, SAT 10-7, SUN 10-5",541-229-1888,43.22689819,-123.3570023
"TCC, Verizon Authorized Dealer",520 Diagonal,Clarkston,WA,99403,"M-F 9-8, SAT 9-7, SUN 10-5",509-758-8315,46.41699982,-117.0449982
"TCC, Verizon Authorized Dealer",280 Valley Mall Parkway,East Wenatchee,WA,98802,"M-F 9-8, SAT 9-7, SUN 10-5",509-886-3300,47.40779877,-120.2890015
"TCC, Verizon Authorized Dealer",221 S. Pioneer Way,Moses Lake,WA,98837,"M-F 9-8, SAT 9-7, SUN 9-5",509-765-0765,47.13280106,-119.2740021
"TCC, Verizon Authorized Dealer",1575 South Market Street,Elizabethtown,PA,17022,"M-F 9-8, SAT 9-7, SUN 10-5",717-367-7200,40.13949966,-76.58640289
"TCC, Verizon Authorized Dealer",625 Lombard Rd.,Red Lion,PA,17356,"M-F 9-8, SAT 9-8, SUN 10-5",717-246-3060,39.9151001,-76.63140106
"TCC, Verizon Authorized Dealer",189 Eisenhower Drive,Hanover,PA,17331,"M-F 9-9, SAT 9-8, SUN 10-5",717-630-0013,39.82500076,-76.9897995
"TCC, Verizon Authorized Dealer",582 Shrewsbury Commons Ave.,Shrewsbury,PA,17361,"M-F 9-8, SAT 9-8, SUN 10-5",717-235-3152,39.76679993,-76.66870117
"TCC, Verizon Authorized Dealer","2350 Lincoln Highway East, Suite 870",Lancaster,PA,17602,"M-F 9-8, SAT 9-7, SUN 10-5",717-945-6192,40.02399826,-76.20880127
"TCC, Verizon Authorized Dealer",3019 Columbia Avenue,Lancaster,PA,17603,"M-F 9-8, SAT 9-8, SUN 10-5",717-299-5003,40.04140091,-76.38809967
"TCC, Verizon Authorized Dealer",2000 Columbia Avenue,Lancaster,PA,17603,"M-F 9-8, SAT 9-8, SUN 10-5",717-517-7912,40.03860092,-76.3588028
"TCC, Verizon Authorized Dealer",1275 York Road,Gettysburg,PA,17325,"M-F 9-8, SAT 9-8, SUN 10-5",717-398-2506,39.84249878,-77.20140076
"TCC, Verizon Authorized Dealer",330 West Main Street,Leola,PA,17540,"M-F 9-8, SAT 9-7, SUN 10-5",717-556-8473,40.08509827,-76.21440125
"TCC, Verizon Authorized Dealer",67 B South Wyoming Ave,Edwardsville,PA,18704,"M-F 9-8, SAT 9-7, SUN 10-5",570-714-8398,41.25960159,-75.89949799
"TCC, Verizon Authorized Dealer",110B West Germantown Pike,East Norriton,PA,19401,"M-F 9-8, SAT 9-7, SUN 10-5",484-704-7008,40.14500046,-75.31970215
"TCC, Verizon Authorized Dealer",10 5th Avenue NW,Le Mars,IA,51031,"M-F 9-8, SAT 9-7, SUN 10-5",712-546-6158,42.79339981,-96.1733017
"TCC, Verizon Authorized Dealer",1407 1st Avenue SW,Austin,MN,55920,"M-F 9-8, SAT 9-7, SUN 10-5",507-440-8555,43.66579819,-92.99099731
"TCC, Verizon Authorized Dealer",7656 160th Street W.,Lakeville,MN,55044,"M-F 9-8, SAT 9-7, SUN 10-5",952-891-1414,44.71670151,-93.22090149
"TCC, Verizon Authorized Dealer",2710 County Road East,White Bear Lake,MN,55110,"M-F 9-8, SAT 9-7, SUN 10-5",651-340-6761,45.06470108,-92.98690033
"TCC, Verizon Authorized Dealer","RTE 130, 603 Browning Road",Brooklawn,NJ,8030,"M-F 9-8, SAT 9-7, SUN 10-5",856-742-7242,39.87870026,-75.11509705
"TCC, Verizon Authorized Dealer","2000 Clements Bridge Road, Suite PA-103",Deptford,NJ,8096,"M-F 9-8, SAT 9-7, SUN 10-5",856-686-4869,39.84120178,-75.09140015
"TCC, Verizon Authorized Dealer","199 N RT 73, Unit #A",Berlin,NJ,8009,"M-F 9-8, SAT 9-7, SUN 10-5",856-753-5335,39.73839951,-74.90830231
"TCC, Verizon Authorized Dealer",1858 Burlington Mount Holly Road,Westampton,NJ,8060,"M-F 9-8, SAT 9-7, SUN 10-5",609-261-4789,40.01060104,-74.79969788
"TCC, Verizon Authorized Dealer",1477 Blackwood Clementon Rd.,Clementon,NJ,8021,"M-F 9-8, SAT 9-7, SUN 10-5",856-227-2034,39.80360031,-75.04129791
"TCC, Verizon Authorized Dealer",269 N. Broadway RT 49,Pennsville,NJ,8070,"M-F 9-8, SAT 9-7, SUN 10-5",856-514-3090,39.60950089,-75.50050354
"TCC, Verizon Authorized Dealer","4 Roosevelt Blvd., Unit 13",Marmora,NJ,8223,"M-F 9-8, SAT 9-7, SUN 10-5",609-545-8639,39.26530075,-74.64949799
"TCC, Verizon Authorized Dealer",816 Boardwalk,Ocean City,NJ,8226,"M-F 9-8, SAT 9-7, SUN 10-5",609-545-8049,39.27590179,-74.57039642
"TCC, Verizon Authorized Dealer",641 Asbury Ave.,Ocean City,NJ,8226,"M-F 9-8, SAT 9-7, SUN 10-5",609-545-8731,39.28129959,-74.57279968
"TCC, Verizon Authorized Dealer",1319 Longbeach Blvd.,Ship Bottom,NJ,8008,"M-F 9-8, SAT 9-7, SUN 10-5",609-207-6079,39.64670181,-74.17810059
"TCC, Verizon Authorized Dealer","525 Beckett Road, Suite 1",Swedesboro,NJ,8085,"M-F 9-8, SAT 9-7, SUN 10-5",856-467-5454,39.75970078,-75.35479736
"TCC, Verizon Authorized Dealer",4700 New Jersey Ave.,Wildwood,NJ,8260,"M-F 9-8, SAT 9-7, SUN 10-5",609-770-3435,38.98500061,-74.82369995
"TCC, Verizon Authorized Dealer","3159 RT 9 South, Unit 5",Rio Grande,NJ,8242,"M-F 9-8, SAT 9-7, SUN 10-5",609-463-6727,39.02109909,-74.8730011
"TCC, Verizon Authorized Dealer",280 Dunns Mills Road,Bordentown,NJ,8505,"M-F 9-8, SAT 9-7, SUN 10-5",609-298-0070,40.13259888,-74.72460175
"TCC, Verizon Authorized Dealer","537 Monmouth Rd., Suite 194",Jackson,NJ,8527,"M-F 10-8, SAT 10-7, SUN 10-5",732-833-1662,40.16159821,-74.41739655
"TCC, Verizon Authorized Dealer","901 Mountain Ave., Space 16A",Springfield,NJ,7081,"M-F 9-8, SAT 9-7, SUN 10-5",973-912-4315,40.68590164,-74.33429718
"TCC, Verizon Authorized Dealer","501 Route 9, Unit 210",Waretown,NJ,8758,"M-F 9-8, SAT 9-7, SUN 10-5",609-698-0007,39.79669952,-74.19860077
"TCC, Verizon Authorized Dealer","15 Cornwell Drive, Suite 17",Bridgeton,NJ,8302,"M-F 9-8, SAT 9-7, SUN 10-5",856-451-1441,39.46110153,-75.20939636
"TCC, Verizon Authorized Dealer","2000 RT 38, Suite 1820",Cherry Hill,NJ,8002,"M-F 10-9:30, SAT 10-9:30, SUN 11-6",856-486-0724,39.94189835,-75.02619934
"TCC, Verizon Authorized Dealer","325 E. Jimmie Leeds Rd., Unit 9 ",Galloway,NJ,8205,"M-F 9-8, SAT 9-7, SUN 10-5",609-241-6100,39.46609879,-74.49710083
"TCC, Verizon Authorized Dealer",80 Southwhite Horse Pike,Hammonton,NJ,8037,"M-F 9-8, SAT 9-7, SUN 10-5",609-481-2212,39.64559937,-74.78690338
"TCC, Verizon Authorized Dealer","660 Woodbury Glassboro Road, Suite C1",Sewell,NJ,8080,"M-F 9-8, SAT 9-7, SUN 10-5",856-468-0330,39.7643013,-75.13490295
"TCC, Verizon Authorized Dealer",2500 Second Street North,Millville,NJ,8332,"M-F 9-8, SAT 9-7, SUN 10-5",856-825-9111,39.4292984,-75.04199982
"TCC, Verizon Authorized Dealer",7828 Ventnor Ave.,Margate City,NJ,8402,"M-F 9-8, SAT 9-7, SUN 10-5",609-487-0060,39.33029938,-74.49790192
"TCC, Verizon Authorized Dealer","1255 W. Landis Ave., Store #2",Vineland,NJ,8360,"M-F 9-8, SAT 9-7, SUN 10-5",856-691-7222,39.47880173,-75.03780365
"TCC, Verizon Authorized Dealer","470 Bergentown Center, Unit-K12",Paramus,NJ,7652,"M-F 9-8, SAT 9-7, SUN 10-5",201-556-1358,40.91569901,-74.05870056
"TCC, Verizon Authorized Dealer","456 Hills Drive, Unit 5,6 ",Bedminster,NJ,7921,"M-F 9-8, SAT 9-7, SUN 10-5",908-719-2600,40.65269852,-74.6391983
"TCC, Verizon Authorized Dealer","649 US Highway 206 North, Suite 3",Hillsborough,NJ,8844,"M-F 9-8, SAT 9-7, SUN 10-5",908-904-4303,40.49819946,-74.64399719
"TCC, Verizon Authorized Dealer",20 Court House Road,Cape May Courthouse,NJ,8210,"M-F 9-8, SAT 9-7, SUN 10-5",609-536-2694,39.08919907,-74.81800079
"TCC, Verizon Authorized Dealer",1252 ROUTE 22,Phillipsburg,NJ,8865,"M-F 9-8, SAT 9-7, SUN 10-5",908-454-4527,40.67739868,-75.14700317
"TCC, Verizon Authorized Dealer",79 RT 46 West,Elmwood Park,NJ,7407,"M-F 9-8, SAT 9-7, SUN 10-5",201-773-8680,40.89369965,-74.12329865
"TCC, Verizon Authorized Dealer","9 MT. BETHEL RD, Unit 5",Warren,NJ,7059,"M-F 9-8, SAT 9-7, SUN 10-5",908-757-7217,40.6167984,-74.49659729
"TCC, Verizon Authorized Dealer",547 Highway 22 East,Whitehouse Station,NJ,8889,"M-F 9-8, SAT 9-7, SUN 10-5",908-923-4157,40.61869812,-74.75769806
"TCC, Verizon Authorized Dealer",865 Washington Ave,Chestertown,MD,21620,"M-F 9-8, SAT 9-7, SUN 10-5",410-810-3150,39.23009872,-76.07240295
"TCC, Verizon Authorized Dealer",1016-G Beards Hill Road,Aberdeen,MD,21001,"M-F 9-8, SAT 9-7, SUN 10-5",410-272-4078,39.52119827,-76.1812973
"TCC, Verizon Authorized Dealer",2975 Plaza Drive,Dunkirk,MD,20754,"M-F 9-8, SAT 9-7, SUN 10-5",443-964-5997,38.72480011,-76.65920258
"TCC, Verizon Authorized Dealer","10818 Ocean Gateway, Unit E",Berlin,MD,21811,"M-F 9-8, SAT 9-7, SUN 10-5",443-513-4870,38.3445015,-75.18430328
"TCC, Verizon Authorized Dealer","12701 Coastal Highway, Store #3",Ocean City,MD,21842,"M-F 9-8, SAT 9-7, SUN 10-5",410-250-8030,38.33649826,-75.0848999
"TCC, Verizon Authorized Dealer","12741 Ocean Gateway, Unit 650",West Ocean City,MD,21842,"M-F 9-8, SAT 9-7, SUN 10-5",410-213-1733,38.33800125,-75.10649872
"TCC, Verizon Authorized Dealer","10300 Little Patuxent Pkwy., Space #2427",Columbia,MD,21044,"M-F 9-8, SAT 9-7, SUN 10-5",410-730-5546,39.21630096,-76.86019897
"TCC, Verizon Authorized Dealer",2609 Philadelphia Ave.,Ocean City,MD,21842,"M-F 9-8, SAT 9-7, SUN 10-5",443-664-2447,38.35609818,-75.07579803
"TCC, Verizon Authorized Dealer","8200 Perry Hall Blvd, Space 2500",Baltimore,MD,21236,"M-F 9-8, SAT 9-7, SUN 10-5",410-933-9080,39.375,-76.46910095
"TCC, Verizon Authorized Dealer","386 Walmart Dr., Unit 5 ",Camden,DE,19934,"M-F 9-8, SAT 9-7, SUN 10-5",302-697-8340,39.10020065,-75.54669952
"TCC, Verizon Authorized Dealer",239 N. Dupont Hwy,Smyrna,DE,19977,"M-F 9-8, SAT 9-7, SUN 10-5",302-653-8183,39.16329956,-75.51529694
"TCC, Verizon Authorized Dealer","401 College Park Lane, Suite 4",Georgetown,DE,19947,"M-F 9-8, SAT 9-7, SUN 10-5",302-854-0303,38.70270157,-75.40419769
"TCC, Verizon Authorized Dealer","37156 Rehoboth Ave., RT1 Coastal Hwy",Rehoboth Beach,DE,19971,"M-F 9-8, SAT 9-7, SUN 10-5",302-227-7300,38.6780014,-75.0719986
"TCC, Verizon Authorized Dealer",28665 Dupont Blvd.,Millsboro,DE,19966,"M-F 9-8, SAT 9-7, SUN 10-5",302-934-1023,38.57699966,-75.28780365
"TCC, Verizon Authorized Dealer","1300 S. South Christopher Columbus Ave., Suite #11A",Philadelphia,PA,19147,"M-F 9-8, SAT 9-7, SUN 10-5",215-218-9733,39.93019867,-75.14479828
"TCC, Verizon Authorized Dealer",501 Horsham Road,Horsham,PA,19044,"M-F 9-8, SAT 9-7, SUN 10-5",267-387-6473,40.18560028,-75.14209747
"TCC, Verizon Authorized Dealer","165A Levittown Parkway, Suite A",Levittown,PA,19055,"M-F 9-8, SAT 9-7, SUN 10-5",215-547-3115,40.14120102,-74.81909943
"TCC, Verizon Authorized Dealer",301 Spring Garden Street,Philadelphia,PA,19123,"M-F 9-8, SAT 9-7, SUN 10-5",215-629-9282,39.96110153,-75.14369965
"TCC, Verizon Authorized Dealer",228 S. Blakely Street,Dunmore,PA,18512,"M-F 9-8, SAT 9-7, SUN 10-5",570-955-5101,41.41999817,-75.63269806
"TCC, Verizon Authorized Dealer","1782 N. Keyser Ave., Store #1",Scranton,PA,18508,"M-F 9-8, SAT 9-7, SUN 10-5",570-871-4010,41.45959854,-75.67320251
"TCC, Verizon Authorized Dealer","512 Towne Plaza, Suite 102",Tunkhannock,PA,18657,"M-F 9-8, SAT 9-7, SUN 10-5",570-996-6177,41.5387001,-75.94660187
"TCC, Verizon Authorized Dealer","5B, 408 Commons Dr.",Parkesburg,PA,19365,"M-F 9-8, SAT 9-7, SUN 10-5",484-712-5111,39.98180008,-75.93370056
"TCC, Verizon Authorized Dealer","622 Gravel Pike, Suite 112",East Greenville,PA,18041,"M-F 9-8, SAT 9-7, SUN 10-5",267-923-8171,40.41329956,-75.50930023
"TCC, Verizon Authorized Dealer",1080 Bethlehem Pike,Colmar,PA,18915,"M-F 9-8, SAT 9-7, SUN 10-5",215-997-2994,40.27249908,-75.25779724
"TCC, Verizon Authorized Dealer",625 West Chesterpike,Havertown,PA,19083,"M-F 9-8, SAT 9-7, SUN 10-5",610-449-1690,39.9715004,-75.30789948
"TCC, Verizon Authorized Dealer",3026 Lehigh Street,Allentown,PA,18103,"M-F 9-8, SAT 9-7, SUN 10-5",610-797-0915,40.55950165,-75.48809814
"TCC, Verizon Authorized Dealer","102 Millford Landing Drive, Suite 6",Milford,PA,18337,"M-F 9-8, SAT 9-7, SUN 10-5",570-491-5200,41.32229996,-74.80239868
"TCC, Verizon Authorized Dealer","569 Route 940, Unit 9",Hamlin,PA,18427,"M-F 9-8, SAT 9-7, SUN 10-5",570-689-3300,41.40359879,-75.40820312
"TCC, Verizon Authorized Dealer",650 Old Willow Ave.,Honesdale,PA,18431,"M-F 9-8, SAT 9-7, SUN 10-5",570-251-3200,41.55070114,-75.22930145
"TCC, Verizon Authorized Dealer",902 E. Baltimore Pike,Kennett Square,PA,19348,"M-F 9-8, SAT 9-7, SUN 10-5",610-925-2790,39.8628006,-75.6785965
"TCC, Verizon Authorized Dealer",1071 Shoppers Blvd.,Moosic,PA,18507,"M-F 10-9, SAT 10-9, SUN 11-6",570-344-0414,41.36380005,-75.68019867
"TCC, Verizon Authorized Dealer","480 Dalleville Hwy., Suite 4",Moscow,PA,18444,"M-F 9-8, SAT 9-7, SUN 10-5",570-843-6730,41.30759811,-75.51660156
"TCC, Verizon Authorized Dealer",3141 Lee Hwy.,Arlington,VA,22201,"M-F 9-8, SAT 9-7, SUN 10-5",703-516-7023,38.89630127,-77.09750366
"TCC, Verizon Authorized Dealer","664 Phoenix Drive, Space 130",Virginia Beach,VA,23452,"M-F 9-8, SAT 9-8, SUN 12-6",757-340-3936,36.82400131,-76.06770325
"TCC, Verizon Authorized Dealer","12300 Jefferson Ave., Suite 718 ",Newport News,VA,23602,"M-F 9:30-8:30, SAT-SUN 11-6",757-269-4902,37.11270142,-76.49559784
"TCC, Verizon Authorized Dealer","4300 Portsmouth Blvd., Suite 196",Chesapeake,VA,23321,"M-F 9:30-8:30, SAT-SUN 11-6",757-465-4600,36.82437515,-76.41979218
"TCC, Verizon Authorized Dealer","1401 Greenbrier Parkway, Space #2006",Chesapeake,VA,23320,"M-F 9:30-8:30, SAT-SUN 11-6",757-963-6597,36.77959824,-76.22740173
"TCC, Verizon Authorized Dealer",249 Pine Hollow Road,Oyster Bay,NY,11771,"M-F 9:30-8:30, SAT-SUN 11-6",516-802-0541,40.85886383,-73.53488159
"TCC, Verizon Authorized Dealer",5002 Hempstead Tpk.,Farmingdale,NY,11735,"M-F 9:30-8:30, SAT-SUN 11-6",516-249-1331,40.72869873,-73.46389771
"TCC, Verizon Authorized Dealer","74 E. Main Street, Store 11A",Smithtown,NY,11787,"M-F 9-8, SAT 9-7, SUN 10-5",631-780-5219,40.85070038,-73.21759796
"TCC, Verizon Authorized Dealer",670 Centre of New England Blvd.,Coventry,RI,2816,"M-F 9-8, SAT 9-7, SUN 10-5",401-823-3500,41.66159821,-71.55310059
"TCC, Verizon Authorized Dealer","2 Factory Outlet Way, Unit 2A",Sagamore,MA,2561,"M-F 9:30-8:30, SAT-SUN 11-6",774-338-5470,41.77130127,-70.54589844
"TCC, Verizon Authorized Dealer",1016 Paradise Road,Swampscott,MA,1907,"M-F 9:30-8:30, SAT-SUN 11-6",781-581-3800,42.48477936,-70.90076447
"TCC, Verizon Authorized Dealer",539 Granite St.,Braintree,MA,2184,"M-F 9:30-8:30, SAT-SUN 11-6",781-428-3631,42.21229935,-71.02050018
"TCC, Verizon Authorized Dealer",522 Main St.,Weymouth,MA,2190,"M-F 9-8, SAT 9-7, SUN 10-5",781-812-1717,42.18880081,-70.9552002
"TCC, Verizon Authorized Dealer",669 Market Street,Lynnfield,MA,1940,"M-F 9:30-8:30, SAT-SUN 11-6",781-334-3344,42.51470184,-71.03070068
"TCC, Verizon Authorized Dealer",23 E. Dowling Village Blvd.,North Smithfield,RI,2896,"M-F 9:30-8:30, SAT-SUN 11-6",401-762-2800,41.97930145,-71.50879669
"TCC, Verizon Authorized Dealer",720 Quentin Road,Lebanon,PA,17042,"M-F 9-8, SAT 9-7, SUN 10-5",717-273-6691,40.3288002,-76.42539978
"TCC, Verizon Authorized Dealer",14 Denton Plaza,Denton,MD,21629,"M-F 9-8, SAT 9-7, SUN 10-5",410-479-5552,38.87400055,-75.82379913
"TCC, Verizon Authorized Dealer","4601 E. Main Street, Space #0970",Farmington,NM,87402,"M-F 10-9, SAT 10-9, SUN 12-6",505-326-2910,36.76340103,-108.151001
"TCC, Verizon Authorized Dealer",5000 S Arizona Mills Circle # 678,Tempe,AZ,85282,"M-F 10-9, SAT 10-9, SUN 11-6",480-730-3405,33.3830986,-111.9649963
"TCC, Verizon Authorized Dealer","20211 N 67th Ave., Suite B-1",Glendale,AZ,85308,"M-F 9-8, SAT 9-7, SUN 10-5",623-566-7199,33.66960144,-112.2020035
"TCC, Verizon Authorized Dealer",7700 W Arrowhead Town Center # 2262,Glendale,AZ,85308,"M-F 10-9, SAT 10-9, SUN 11-6",623-376-6200,33.64210129,-112.2249985
"TCC, Verizon Authorized Dealer",3111 W Chandler Blvd. #1216,Chandler,AZ,85226,"M-F 10-9, SAT 10-9, SUN 11-6",480-858-0800,33.30171204,-111.8985291
"TCC, Verizon Authorized Dealer",10000 Coors Blvd. Bypass NW #DG208,Albuquerque,NM,87114,"M-F 10-9, SAT 10-9, SUN 11-6",505-433-4584,35.19720078,-106.6569977
"TCC, Verizon Authorized Dealer","960 South Main Street, Suite C",Cottonwood,AZ,86326,"M-F 9-8, SAT 9-7, SUN 10-5",928-634-2359,34.72290039,-112.0049973
"TCC, Verizon Authorized Dealer","7611 W. Thomas Rd., Space #E008",Phoenix,AZ,85033,"M-F 10-9, SAT 10-9, SUN 11-8",623-247-1535,33.47650147,-112.2249985
"TCC, Verizon Authorized Dealer",4323 E Main St,Farmington,NM,87402,"M-F 9-8, SAT 9-8, SUN 11-5",505-326-5351,36.76119995,-108.1549988
"TCC, Verizon Authorized Dealer",4650 N Highway 89 # B26,Flagstaff,AZ,86004,"M-F 10-9, SAT 10-9, SUN 11-6",928-714-0595,35.22320175,-111.5820007
"TCC, Verizon Authorized Dealer",7401 N. LaCholla Blvd. # 156,Tucson,AZ,85741,"M-F 10-9, SAT 10-9, SUN 11-6",520-219-3343,32.34080124,-111.0149994
"TCC, Verizon Authorized Dealer",16845 E. Shea Blvd .,Fountain Hills,AZ,85268,"M-F 10-9, SAT 10-9, SUN 10-6",480-816-5036,33.57400131,-111.7160034
"TCC, Verizon Authorized Dealer","3292 Glassford Hill Rd., Suite D-01 ",Prescott Valley,AZ,86314,"M-F 9-8, SAT 9-8, SUN 11-5",928-445-4344,34.59000015,-112.3420029
"TCC, Verizon Authorized Dealer","1325 George Dieter Dr., Suite E4",El Paso,TX,79936,"M-F 9-8, SAT 9-7, SUN 10-5",915-304-0332,31.72459984,-106.3030014
"TCC, Verizon Authorized Dealer",9617 Metro Parkway West  #2040,Phoenix,AZ,85051,"M-F 11-9, SAT 10-9, SUN 10-6",602-861-2500,33.57500076,-112.1210022
"TCC, Verizon Authorized Dealer",4550 E. Cactus Rd. #92,Phoenix,AZ,85032,"M-F 10-9, SAT 10-9, SUN 11-6",602-971-9900,33.60219955,-111.9840012
"TCC, Verizon Authorized Dealer",5870 E Broadway Blvd. # 102,Tucson,AZ,85711,"M-F 10-9, SAT 10-9, SUN 11-6",520-514-0869,32.21920013,-110.8659973
"TCC, Verizon Authorized Dealer",5870 E Broadway Blvd. # 142,Tucson,AZ,85711,"M-F 10-9, SAT 10-9, SUN 11-6",520-584-2001,32.21920013,-110.8659973
"TCC, Verizon Authorized Dealer","8980 E Indian Bend Rd., Suite D-6",Scottsdale,AZ,85250,"M-F 9-8, SAT 9-7, SUN 10-5",480-270-5400,33.54050064,-111.8880005
"TCC, Verizon Authorized Dealer",401 N Beeline Highway,Payson,AZ,85541,"M-F 9-8, SAT 9-7, SUN 10-5",928-468-6587,34.24520111,-111.3219986
"TCC, Verizon Authorized Dealer",3250 Gateway Blvd. #330,Prescott,AZ,86303,"M-T 10-8, FRI 10-9, SAT 10-9, SUN 11-6",928-442-1345,34.54769898,-112.4089966
"TCC, Verizon Authorized Dealer","14900 N Pima Rd., Suite 104",Scottsdale,AZ,85260,"M-F 10-9, SAT 10-9, SUN 10-6",480-922-4556,33.62049866,-111.8919983
"TCC, Verizon Authorized Dealer","436 Redd Rd., Suite 101",El Paso,TX,79912,"M-F 9-8, SAT 10-7, SUN 9-5",915-219-9746,31.8635006,-106.572998
"TCC, Verizon Authorized Dealer",1300 W Maloney Ave Sp 304B,Gallup,NM,87301,"M-F 10-9, SAT 10-9, SUN 12-6",505-722-9711,35.53120041,-108.7633667
"TCC, Verizon Authorized Dealer",7056 E. Golf Links Rd.,Tucson,AZ,85730,"M-F 9-8, SAT 9-7, SUN 10-5",520-514-0465,32.19139099,-110.842041
"TCC, Verizon Authorized Dealer","2218 E. Williams Field Rd., Suite #115",Gilbert,AZ,85295,"M-F 10-9, SAT 10-9, SUN 11-6",480-899-3238,33.30879974,-111.7429962
"TCC, Verizon Authorized Dealer",4250 E Cerrillos Rd. # 1172,Santa Fe,NM,87507,"M-F 10-9, SAT 10-9, SUN 12-6",505-474-2877,35.63619995,-106.0139999
"TCC, Verizon Authorized Dealer","23143 N. Scottsdale Rd., Unit 105",Scottsdale,AZ,85255,"M-F 9-8, SAT 9-7, SUN 10-5",480-473-4528,33.69727707,-111.9246826
"TCC, Verizon Authorized Dealer","32415 N Scottsdale Rd., Space B5-101",Scottsdale,AZ,85262,"M-F 9-8, SAT 9-7, SUN 10-5",480-575-1732,33.77909851,-111.9260025
"TCC, Verizon Authorized Dealer",6555 E Southern Ave # H15,Mesa,AZ,85206,"M-F 10-9, SAT 10-9, SUN 11-6",480-981-2300,33.3905983,-111.6900024
"TCC, Verizon Authorized Dealer","7245 E Tanque Verde, Suite #135",Tucson,AZ,85715,"M-F 9-8, SAT 9-7, SUN 10-5",520-731-8439,32.25130081,-110.8379974
"TCC, Verizon Authorized Dealer",254 Lee Blvd. #101,Prescott,AZ,86303,"M-F 10-8, SAT 10-8, SUN 11-5",928-778-5665,34.54000092,-112.413002
"TCC, Verizon Authorized Dealer",4605 Woodrowbean Transmountain Rd.,El Paso,TX,79924,"M-F 9-8, SAT 9-7, SUN 10-5",915-275-5038,31.89920044,-106.4369965
"TCC, Verizon Authorized Dealer","4500 N Oracle Rd., Suite 119",Tucson,AZ,85705,"M-F 10-9, SAT 10-9, SUN 12-6",520-888-0742,32.28910065,-110.973999
"TCC, Verizon Authorized Dealer","4500 N Oracle Rd., Suite 215",Tucson,AZ,85705,"M-F 10-9, SAT 10-9, SUN 12-6",520-690-9700,32.28910065,-110.973999
"TCC, Verizon Authorized Dealer",333 W. Main St.,Havana,IL,62644,"M-F 8-6, SAT 9-3, SUN - CLOSED",309-543-3046,40.29990006,-90.06490326
"TCC, Verizon Authorized Dealer",3626 N. Sheridan Rd.,Peoria,IL,61604,"M-F 8-8, SAT 8-7, SUN 11-5 ",309-682-8200,40.73160172,-89.60269928
"TCC, Verizon Authorized Dealer","1873 Washington Rd., Suite B",Washington,IL,61571,"M-F 9-7, SAT 9-6, SUN - CLOSED",309-444-3575,40.70449829,-89.44219971
"TCC, Verizon Authorized Dealer",226 N. 4th St.,Chillicothe,IL,61523,"M-F 9-6, SAT 9-6, SUN - CLOSED",309-603-9061,40.91019821,-89.49099731
"TCC, Verizon Authorized Dealer","1280 Broadhollow Road, Suite E",Farmingdale,NY,11735,"M-F 9-8, SAT 9-7, SUN 10-5",631-861-3030,40.73460007,-73.4240036
"TCC, Verizon Authorized Dealer",3730 Easton-Nazareth Hwy,Easton,PA,18045,"M-F 9-8, SAT 9-7, SUN 10-5",610-923-7000,40.71519852,-75.28569794
"TCC, Verizon Authorized Dealer",42 N. West End Blvd.,Quakertown,PA,18951,"M-F 9-8, SAT 9-7, SUN 10-5",215-804-0700,40.44480133,-75.36049652
"TCC, Verizon Authorized Dealer",3075 W Tilghman St,Allentown,PA,18104,"M-F 9-8, SAT 9-7, SUN 10-5",610-820-7000,40.59840012,-75.52610016
"TCC, Verizon Authorized Dealer",6379 Hamilton Blvd.,Allentown,PA,18106,"M-F 9-8, SAT 9-7, SUN 10-5",484-223-3100,40.55630112,-75.58159637
"TCC, Verizon Authorized Dealer",107 Brown St,East Stroudsburg,PA,18301,"M-F 9-8, SAT 9-7, SUN 10-5",570-213-0560,40.99259949,-75.18440247
"TCC, Verizon Authorized Dealer",837 Airport Rd.,Hazle Township,PA,18202,"M-F 9-9, SAT 9-7, SUN 10-5",570-579-0200,40.98600006,-76.01869965
"TCC, Verizon Authorized Dealer",73 Old Dublin Pike,Doylestown,PA,18901,"M-F 9-8, SAT 9-7, SUN 10-5",215-600-3305,40.32440186,-75.13220215
"TCC, Verizon Authorized Dealer","707 N. Krocks Road, Suite 105",Allentown,PA,18106,"M-F 9-8, SAT 9-7, SUN 10-5",484-497-9640,40.56629944,-75.56099701
"TCC, Verizon Authorized Dealer",136 N. Northwest Hwy.,Park Ridge,IL,60068,"M-F 9-8, SAT 9-7, SUN 10-5",847-720-4380,42.01210022,-87.83139801
"TCC, Verizon Authorized Dealer",1825 Tower Drive,Glenview,IL,60026,"M-F 9-8, SAT 9-7, SUN 10-5",847-657-8100,42.08720017,-87.82289886
"TCC, Verizon Authorized Dealer",214 Randhurst Village Drive,Mount Prospect,IL,60056,"M-F 9-8, SAT 9-7, SUN 10-5",847-590-1520,42.08580017,-87.93190002
"TCC, Verizon Authorized Dealer",510 Winnetka Avenue,Winnetka,IL,60093,"M-F 9-8, SAT 9-7, SUN 10-5",847-784-1500,42.09360123,-87.72229767
"TCC, Verizon Authorized Dealer",2090 Skokie Valley Road,Highland Park,IL,60035,"M-F 9-8, SAT 9-7, SUN 10-5",847-681-0700,42.20550156,-87.80069733
"TCC, Verizon Authorized Dealer",630 Davis Street,Evanston,IL,60201,"M-F 9-8, SAT 9-7, SUN 10-5",224-307-2139,42.04639816,-87.6812973
"TCC, Verizon Authorized Dealer","3705 Murrell Road, Suite 103 ",Rockledge,FL,32955,"M-F 9-8, SAT 9-7, SUN 10-5",321-637-9100,28.29640007,-80.72149658
"TCC, Verizon Authorized Dealer",5265 Bartow Road,Lakeland,FL,33812,"M-F 9-8, SAT 9-7, SUN 10-6",863-646-4940,27.96999931,-81.88179779
"TCC, Verizon Authorized Dealer","1104 Beville Road, Suite C",Daytona Beach,FL,32114,"M-F 9-8, SAT 9-7, SUN 10-7",386-871-7481,29.17550087,-81.03019714
"TCC, Verizon Authorized Dealer","13820 Old Saint Augustine Road, Suite 205",Jacksonville,FL,32258,"M-F 9-8, SAT 9-7, SUN 10-5",904-400-6566,30.14049912,-81.54959869
"TCC, Verizon Authorized Dealer","6200 20th Street, Suite #444	",Vero Beach,FL,32966,"M-F 9-8, SAT 9-7, SUN 10-5",772-564-2721,27.64248467,-80.45898438
"TCC, Verizon Authorized Dealer",2091 Indian River,Vero Beach,FL,32966,"M-F 10-9, SAT 10-9, SUN 12-6",772-999-2780,27.63818932,-80.38168335
"TCC, Verizon Authorized Dealer","1700 W. New Haven Blvd., Suite 767-A",Melbourne,FL,32904,"M-F 9-8, SAT 9-7, SUN 10-11",321-446-8423,28.08160019,-80.64949799
"TCC, Verizon Authorized Dealer","7822 W. Sand Lake Road, Suite A",Orlando,FL,32819,"M-F 9-8, SAT 9-7, SUN 10-12",407-450-6822,28.44989967,-81.48960114
"TCC, Verizon Authorized Dealer","1000 Premium Outlets Dr., Suite B-4",Tannersville,PA,18372,"M-F 10-9, SAT 10-9, 10-8",570-619-4010,41.04782867,-75.31228638
"TCC, Verizon Authorized Dealer",4008 S. Lemay Ferry Road,St. Louis,MO,63129,"M-F 9-8, SAT 9-7, SUN 10-5",314-339-7830,38.50529862,-90.3259964
"TCC, Verizon Authorized Dealer",864 Boston Post Rd,Guilford,CT,6437,"M-F 9-8, SAT 9-7, SUN 11-5",203-458-6700,41.28860092,-72.67790222
"TCC, Verizon Authorized Dealer","994 N Colony Rd, Suite B",Wallingford,CT,6492,"M-F 9-8, SAT 9-7, SUN 11-5",203-269-6900,41.49010086,-72.80860138
"TCC, Verizon Authorized Dealer",49 Pershing Drive,Derby,CT,6418,"M-F 9-8, SAT 9-7, SUN 11-5",203-735-7707,41.33119965,-73.08460236
"TCC, Verizon Authorized Dealer",891 W Main St,Branford,CT,6405,"M-F 9-8, SAT 9-7, SUN 11-5",203-488-6475,41.27600098,-72.83550262
"TCC, Verizon Authorized Dealer",11 East High St.,East Hampton,CT,6424,"M-F 9-8, SAT 9-7, SUN 11-5",860-267-6169,41.584301,-72.50540161
"TCC, Verizon Authorized Dealer",193 River Rd,Lisbon,CT,6351,"M-F 9-8, SAT 9-7, SUN 11-5",860-376-1300,41.58480072,-71.99520111
"TCC, Verizon Authorized Dealer",77 Salem Tpke,Norwich,CT,6360,"M-F 9-8, SAT 9-7, SUN 11-5",860-886-4000,41.51290131,-72.11100006
"TCC, Verizon Authorized Dealer",2100 Dixwell Ave,Hamden,CT,6514,"M-F 9-8, SAT 9-7, SUN 11-5",203-407-3131,41.36980057,-72.92209625
"TCC, Verizon Authorized Dealer",91 Auburn St.,Portland,ME,4103,"M-F 9-8, SAT 9-8, SUN 11-5",207-797-5575,43.70289993,-70.28820038
"TCC, Verizon Authorized Dealer",801 Putney Rd,Brattleboro,VT,5301,"M-T 9-7, FRI 9-8, SAT 10-6, SUN 11-5",802-251-0121,42.87630081,-72.55979919
"TCC, Verizon Authorized Dealer",36A Fenn Road,Newington,CT,6111,"M-F 9-8, SAT 9-8, SUN 11-5",860-666-9663,41.69680023,-72.75509644
"TCC, Verizon Authorized Dealer",200 Merrow Rd,Tolland,CT,6084,"M-F 9-8, SAT 9-8, SUN 11-5",860-870-0100,41.85969925,-72.35479736
"TCC, Verizon Authorized Dealer",282 Berlin Mall Road,Berlin,VT,5602,"M-F 10-9, SAT 10-9, SUN 11-5",802-223-9090,44.21699905,-72.56520081
"TCC, Verizon Authorized Dealer",University Mall  155 Dorset St,South Burlington,VT,5403,"M-F 9:30-9, SAT 9:30-9, SUN 10-6",802-864-2520,44.46519852,-73.1835022
"TCC, Verizon Authorized Dealer",1891 East Main Street,Torrington,CT,6790,"M-F 9-9, SAT 9-9, SUN 11-6",860-626-8600,41.82170105,-73.07790375
"TCC, Verizon Authorized Dealer",127 Berlin Rd,Cromwell,CT,6416,"M-F 9-8, SAT 9-8, SUN 11-5",860-635-4600,41.6053009,-72.70760345
"TCC, Verizon Authorized Dealer",425 Talcottville Rd,Vernon,CT,6066,"M-F 9-8, SAT 9-8, SUN 11-5",860-872-7244,42,-74
"TCC, Verizon Authorized Dealer",35740 Van Dyke Ave,Sterling Heights,MI,48312,"M-F 9-8, SAT 9-8, SUN 11-5",586-795-8610,42.55590057,-83.02829742
"TCC, Verizon Authorized Dealer",15611 Hall Road,Macomb,MI,48044,"M-F 9-8, SAT 9-8, SUN 11-5",586-566-8555,42.6283989,-82.9673996
"TCC, Verizon Authorized Dealer",1173 S. Carney Drive,St. Clair,MI,48079,"M-F 9-7, SAT 9-7, SUN 10-5",810-329-5180,42.81919861,-82.50360107
"TCC, Verizon Authorized Dealer","7800 John Davis Drive, Suite 460",Frankfort,KY,40601,"M-F 9-8, SAT 9-8, SUN 11-5",502-352-2902,38.17580032,-84.82089996
"TCC, Verizon Authorized Dealer",809 US Highway 27S,Cynthiana,KY,41031,"M-F 9-8, SAT 9-8, SUN 11-5",859-508-0255,38.37969971,-84.3082962
"TCC, Verizon Authorized Dealer",12030 Princeton Dr,Huntley,IL,60142,"M-F 9-8, SAT 9-8, SUN 11-5",847-515-2000,42,-74
"TCC, Verizon Authorized Dealer",8042 Binnie Rd,Carpentersville,IL,60110,"M-F 9-8, SAT 9-8, SUN 11-5",224-802-2978,42,-74
"TCC, Verizon Authorized Dealer",6548 W Route 34,Plano,IL,60545,"M-F 9-8, SAT 9-8, SUN 11-5",630-552-9790,42,-74
"TCC, Verizon Authorized Dealer",229 South Roselle Rd,Schaumburg,IL,60193,"M-F 9-8, SAT 9-8, SUN 11-5",847-285-1937,42,-74
"TCC, Verizon Authorized Dealer",11059 N. Port Washington Rd.,Mequon,WI,53092,"M-F 9-8, SAT 9-8, SUN 11-5",262-302-4246,42,-74
"TCC, Verizon Authorized Dealer",2107 E Semoran Blvd,Apopka,FL,32703,"M-F 9-8, SAT 9-8, SUN 11-5",407-464-9122,42,-74
"TCC, Verizon Authorized Dealer",4879 East Irlo Bronson Memorial Heights,St. Cloud,FL,34771,"M-F 9-8, SAT 9-8, SUN 11-5",407-892-2922,42,-74
"TCC, Verizon Authorized Dealer",16258 West Main Street,CutOff,LA,70345,"M-F 9-8, SAT 9-8, SUN 11-5",985-325-3410,42,-74
"TCC, Verizon Authorized Dealer","1000 W. Esplande Ave., Suite 101D ",Kenner,LA,70065,"M-F 9-8, SAT 9-8, SUN 11-5",504-287-4731,42,-74
"TCC, Verizon Authorized Dealer","901 West Airline Hwy, Suite F",LaPlace,LA,70068,"M-F 9-8, SAT 9-8, SUN 11-5",985-359-1852,42,-74
"TCC, Verizon Authorized Dealer","3200 Monroe Hwy, Suite 110",Pineville,LA,71360,"M-F 9-8, SAT 9-8, SUN 11-5",318-640-1380,42,-74
"TCC, Verizon Authorized Dealer",5635 Main St. Suite D,Zachary,LA,70791,"M-F 9-8, SAT 9-8, SUN 11-5",225-658-4669,42,-74
"TCC, Verizon Authorized Dealer","205 Apollo Beach Boulevard, Suite 101",Apollo Beach,FL,33572,"M-F 9-8, SAT 9-7, SUN 10-5",,27.77029991,-82.3934021
"TCC, Verizon Authorized Dealer","7130 Big Bend Road, Unit 114",Gibsonton,FL,33534,"M-F 9-8, SAT 9-7, SUN 10-5",,27.79299927,-82.37120056
"TCC, Verizon Authorized Dealer",2932 S. Business Drive,Sheboygan,WI,53081,"M-F 9-8, SAT 9-7, SUN 10-5",920-395-6900,43.7234993,-87.73590088
"TCC, Verizon Authorized Dealer",11948 Ironbridge Rd.,Chester,VA,23831,"M-F 10-9, SAT 10-9, SUN 11-6",804-778-4531,37.35309982,-77.48570251
"TCC, Verizon Authorized Dealer",15083 Patrick Henry Hwy,Amelia Courthouse,VA,23002,"M-F 10-7, SAT 10-7, SUN 11-5",804-561-3860,37.36489868,-77.93710327
"TCC, Verizon Authorized Dealer",7320 Staples Mill Road,Richmond,VA,23228,"M-F 9-8, SAT 9-8, SUN 10-5",804-262-3819,37.61589813,-77.4980011
"TCC, Verizon Authorized Dealer","658 Missouri Ave, Suite 6",Saint Robert,MO,65584,"M-F 9-8, SAT 9-8, SUN 10-5",573-336-3642,37.80749893,-92.14279938
"TCC, Verizon Authorized Dealer",1276 Jeffco Blvd.,Arnold,MO,63010,"M-F 9-8, SAT 9-8, SUN 10-5",636-287-1805,38.43470001,-90.37560272
"TCC, Verizon Authorized Dealer","603 S. Bishop, Ste C",Rolla,MO,65401,"M-F 9-8, SAT 9-7, SUN 10-5",573-308-4750,37.93830109,-91.77700043
"TCC, Verizon Authorized Dealer",115 S Duff Ave,Ames,IA,50010,"M-F 9-8, SAT 9-7, SUN 10-5",515-233-5289,42.02259827,-93.61039734
"TCC, Verizon Authorized Dealer",704 Story St,Boone,IA,50036,"M-F 9-8, SAT 9-7, SUN 10-5",515-432-3207,42.06280136,-93.87999725
"TCC, Verizon Authorized Dealer","1220 Sunset Dr., Suite 102",Norwalk,IA,50211,"M-F 9-8, SAT 9-8, SUN 10-5",515-981-9089,41.48089981,-93.67720032
"TCC, Verizon Authorized Dealer",1217 N 6th Ave,Winterset,IA,50273,"M-F 9-8, SAT 9-8, SUN 10-5",515-462-1662,41.34550095,-94.01999664